{
  "version": 0.6,
  "generator": "Overpass API 0.7.59 e21c39fe",
  "osm3s": {
    "timestamp_osm_base": "2022-11-05T13:20:25Z",
    "copyright": "The data included in this document is from www.openstreetmap.org. The data is made available under ODbL."
  },
  "elements": [

{
  "type": "node",
  "id": 257905592,
  "lat": 50.9374878,
  "lon": 6.9449479,
  "tags": {
    "amenity": "theatre",
    "email": "info@gloria-theater.com",
    "fax": "+49 221 6606330",
    "image": "https://commons.wikimedia.org/wiki/File:Gloria-Theater,_K%C3%B6ln-8655.jpg",
    "name": "Gloria Theater",
    "operator": "Gastro-Event GmbH",
    "phone": "+49 221 660630",
    "toilets:wheelchair": "no",
    "website": "http://gloria-theater.com/",
    "wheelchair": "limited",
    "wikidata": "Q1532043",
    "wikipedia": "de:Gloria-Theater (Köln)"
  }
},
{
  "type": "node",
  "id": 260728717,
  "lat": 50.9370880,
  "lon": 6.9619478,
  "tags": {
    "addr:city": "Köln",
    "addr:housenumber": "2-4",
    "addr:postcode": "50667",
    "addr:street": "Eisenmarkt",
    "amenity": "theatre",
    "name": "Hänneschen-Theater",
    "phone": "+49 221 2581201",
    "source": "survey",
    "toilets:wheelchair": "yes",
    "website": "https://www.haenneschen.de/",
    "wheelchair": "yes",
    "wikidata": "Q151251",
    "wikipedia": "de:Hänneschen-Theater"
  }
},
{
  "type": "node",
  "id": 267352592,
  "lat": 50.9414333,
  "lon": 6.9592324,
  "tags": {
    "historic": "ruins",
    "layer": "1",
    "name": "St. Maria ad Gradus",
    "note": "Zwei Säulen des Atriums der Stiftskirche “St. Maria ad Gradus” (erbaut 1060) sind an originaler Stelle aufgestellt.",
    "ruins": "yes",
    "source": "photography",
    "wikidata": "Q80786",
    "wikipedia": "de:St. Maria ad Gradus (Köln)"
  }
},
{
  "type": "node",
  "id": 283794314,
  "lat": 50.9479746,
  "lon": 6.9443254,
  "tags": {
    "amenity": "fountain",
    "description": "Der \"Star-Pit\"-Brunnen am MediaPark wurde von Otto Piene 1992 entworfen.",
    "drinking_water": "no",
    "lit": "no",
    "name": "Star-Pit",
    "source": "https://commons.wikimedia.org/wiki/File:Star_Pit_-_Brunnen_von_Otto_Piene_im_Mediapark_K%C3%B6ln-0361.jpg",
    "wikidata": "Q18517276",
    "wikipedia": "de:Otto Piene"
  }
},
{
  "type": "node",
  "id": 566148999,
  "lat": 50.9386343,
  "lon": 6.9512096,
  "tags": {
    "addr:city": "Köln",
    "addr:country": "DE",
    "addr:housenumber": "11",
    "addr:postcode": "50667",
    "addr:street": "Glockengasse",
    "amenity": "theatre",
    "name": "Theater am Dom",
    "source": "photography",
    "website": "https://www.theateramdom.de/",
    "wheelchair": "no",
    "wikidata": "Q1751225",
    "wikipedia": "de:Theater am Dom"
  }
},
{
  "type": "node",
  "id": 570692795,
  "lat": 50.9366908,
  "lon": 6.9364479,
  "tags": {
    "addr:city": "Köln",
    "addr:country": "DE",
    "addr:housenumber": "24-26",
    "addr:postcode": "50674",
    "addr:street": "Aachener Straße",
    "amenity": "theatre",
    "name": "Theater im Bauturm",
    "phone": "+49 221 524242",
    "website": "https://www.theaterimbauturm.de",
    "wheelchair": "no",
    "wikidata": "Q13965778",
    "wikipedia": "de:Theater im Bauturm"
  }
},
{
  "type": "node",
  "id": 622638987,
  "lat": 50.9382169,
  "lon": 6.9607635,
  "tags": {
    "name": "Tünnes und Schäl",
    "tourism": "attraction",
    "wheelchair": "yes",
    "wikidata": "Q151639",
    "wikipedia": "de:Tünnes und Schäl"
  }
},
{
  "type": "node",
  "id": 633480737,
  "lat": 50.9406158,
  "lon": 6.9608240,
  "tags": {
    "addr:city": "Köln",
    "addr:housenumber": "1",
    "addr:postcode": "50667",
    "addr:street": "Bischofsgartenstraße",
    "amenity": "theatre",
    "layer": "2",
    "name": "Kölner Philharmonie",
    "name:lb": "Kölner Philharmonie",
    "phone": "+49 221 204080",
    "source": "survey",
    "toilets:wheelchair": "yes",
    "website": "http://www.koelner-philharmonie.de/",
    "wheelchair": "yes",
    "wikidata": "Q177368",
    "wikipedia": "de:Kölner Philharmonie"
  }
},
{
  "type": "node",
  "id": 774756974,
  "lat": 50.9396681,
  "lon": 6.9605866,
  "tags": {
    "addr:city": "Köln",
    "addr:housenumber": "4",
    "addr:postcode": "50667",
    "addr:street": "Große Neugasse",
    "amenity": "theatre",
    "name": "Senftöpfchen",
    "phone": "+49 221 2581058",
    "toilets:wheelchair": "no",
    "website": "https://www.senftoepfchen-theater.de/",
    "wheelchair": "limited",
    "wikidata": "Q2270942",
    "wikipedia": "de:Senftöpfchen"
  }
},
{
  "type": "node",
  "id": 848882148,
  "lat": 50.9368919,
  "lon": 6.9476999,
  "tags": {
    "historic": "tower",
    "image": "http://commons.wikimedia.org/wiki/File:Richmodisturm_K%C3%B6ln_%283615-17%29.jpg",
    "name": "Richmodisturm",
    "wikipedia": "de:Neumarkt (Köln)#Der Richmodisturm"
  }
},
{
  "type": "node",
  "id": 937122224,
  "lat": 50.9582402,
  "lon": 6.9733446,
  "tags": {
    "name": "Bollerwagen",
    "name:en": "wagon",
    "tourism": "attraction"
  }
},
{
  "type": "node",
  "id": 1679641146,
  "lat": 50.9506660,
  "lon": 6.9634420,
  "tags": {
    "heritage": "8",
    "heritage:operator": "UntereDenkmalbehörde",
    "location": "underground",
    "man_made": "manhole",
    "manhole": "sewer",
    "name": "Kronleuchtersaal",
    "note": "Kölner Kanalisation",
    "tourism": "attraction",
    "wikidata": "Q1399679",
    "wikipedia": "de:Kronleuchtersaal in der Kölner Kanalisation"
  }
},
{
  "type": "node",
  "id": 1765490247,
  "lat": 50.8827376,
  "lon": 6.8806672,
  "tags": {
    "historic": "ruins",
    "name": "Burgtor Hermülheim",
    "wikidata": "Q1012314",
    "wikipedia": "de:Burg Hermülheim"
  }
},
{
  "type": "node",
  "id": 2217289561,
  "lat": 50.9351035,
  "lon": 6.8697729,
  "tags": {
    "addr:city": "Köln",
    "addr:housenumber": "6",
    "addr:postcode": "50933",
    "addr:street": "Am Sportpark Müngersdorf",
    "amenity": "university",
    "image": "http://upload.wikimedia.org/wikipedia/commons/4/40/Logo_DSHS_Koeln.svg",
    "name": "Deutsche Sporthochschule Köln",
    "name:es": "Escuela Superior de Deportes de Alemania",
    "toilets:wheelchair": "yes",
    "website": "https://www.dshs-koeln.de/",
    "wheelchair": "yes",
    "wheelchair:description": "Weitere Informationen bzgl. der Barrierefreiheit finden Sie unter folgenden Link: http://www.kombabb-internetportal-nrw.de/plugin.php?menuid=6&template=mv/templates/mv_show_front.html&mv_id=1&extern_meta=x&mv_content_id=75",
    "wikidata": "Q315229",
    "wikipedia": "de:Deutsche Sporthochschule Köln"
  }
},
{
  "type": "node",
  "id": 2278367185,
  "lat": 50.9229443,
  "lon": 6.9506316,
  "tags": {
    "amenity": "theatre",
    "name": "Theater der Keller",
    "wheelchair": "no",
    "wikidata": "Q1677620",
    "wikipedia": "de:Theater der Keller"
  }
},
{
  "type": "node",
  "id": 2390657927,
  "lat": 51.0222804,
  "lon": 6.9885981,
  "tags": {
    "addr:city": "Leverkusen",
    "advertising": "sign",
    "brand": "Bayer",
    "diameter": "51 m",
    "landmark": "yes",
    "luminous": "yes",
    "name": "Bayer-Kreuz",
    "operator": "Bayer AG",
    "tourism": "attraction",
    "wikidata": "Q549165",
    "wikipedia": "de:Bayer-Kreuz"
  }
},
{
  "type": "node",
  "id": 3060757480,
  "lat": 50.9644797,
  "lon": 6.8613459,
  "tags": {
    "height": "0.8",
    "man_made": "tower",
    "name": "Belvedere Felderblick",
    "operator": "Stadt Köln",
    "source": "http://offeneskoeln.de/attachments/6/8/pdf229386.pdf",
    "tourism": "viewpoint",
    "tower:type": "observation",
    "wikidata": "Q16725968",
    "wikipedia": "de:Landschaftspark Belvedere"
  }
},
{
  "type": "node",
  "id": 3060757481,
  "lat": 50.9567195,
  "lon": 6.8662818,
  "tags": {
    "height": "3",
    "man_made": "tower",
    "name": "Belvedere Ausblick",
    "operator": "Stadt Köln",
    "source": "http://offeneskoeln.de/attachments/6/8/pdf229386.pdf",
    "tourism": "viewpoint",
    "tower:type": "observation",
    "wheelchair": "yes",
    "wikidata": "Q16725968",
    "wikipedia": "de:Landschaftspark Belvedere"
  }
},
{
  "type": "node",
  "id": 3287270571,
  "lat": 50.9386099,
  "lon": 6.9737163,
  "tags": {
    "amenity": "fountain",
    "drinking_water": "no",
    "name": "Lommi-Brunnen",
    "wikidata": "Q1751104",
    "wikipedia": "de:Lommerzheim"
  }
},
{
  "type": "node",
  "id": 3368305356,
  "lat": 50.9317170,
  "lon": 6.9559779,
  "tags": {
    "amenity": "college",
    "email": "kontakt@hs-doepfer.de",
    "name": "HSD Hochschule Döpfer",
    "phone": "+49 (0)221 126 125-0",
    "website": "https://www.hs-doepfer.de/",
    "wikidata": "Q15818931",
    "wikipedia": "de:HSD Hochschule Döpfer"
  }
},
{
  "type": "node",
  "id": 3526559712,
  "lat": 50.9580102,
  "lon": 6.9730172,
  "tags": {
    "name": "Luftballons",
    "name:en": "ballons",
    "shop": "ballon",
    "tourism": "attraction",
    "wheelchair": "yes"
  }
},
{
  "type": "node",
  "id": 3692485277,
  "lat": 50.9589244,
  "lon": 6.9735063,
  "tags": {
    "attraction": "yes",
    "brand": "Klöckner-Humbold-Deutz",
    "colour": "green",
    "exhibit": "tractor",
    "historic": "exhibit",
    "name": "D15",
    "playground": "tractor",
    "production_date": "1962",
    "tourism": "attraction",
    "tractor:type": "D15",
    "wikidata": "Q19278143",
    "wikipedia": "de:Deutz D 15",
    "zoo": "enclosure"
  }
},
{
  "type": "node",
  "id": 4006365121,
  "lat": 50.9614689,
  "lon": 7.0122337,
  "tags": {
    "addr:city": "Köln",
    "addr:country": "DE",
    "addr:housenumber": "50",
    "addr:postcode": "51065",
    "addr:street": "Elisabeth-Breuer-Straße",
    "amenity": "place_of_worship",
    "denomination": "romanian_orthodox",
    "email": "mitu@rok-ah.de",
    "name": "Parohia Ortodoxă Română „Duminica Tuturor Sfinţilor” Köln",
    "name:de": "Rumänisch-Orthodoxen Gemeinde \"All Saints Sunday\" Köln",
    "name:en": "Romanian Orthodox Parish \"All Saints Sunday\" Cologne",
    "name:ro": "Parohia Ortodoxă Română „Duminica Tuturor Sfinţilor” Köln",
    "phone": "+49 221 620 1187",
    "religion": "christian",
    "source": "http://www.mitropolia-ro.de/index.php/parohii/parohii-germania",
    "start_date": "1987",
    "website": "http://www.rok-ah.de/"
  }
},
{
  "type": "node",
  "id": 4424617595,
  "lat": 50.9453662,
  "lon": 6.9230215,
  "tags": {
    "name": "Barthonia Showroom",
    "name:en": "Barthonia Showroom",
    "tourism": "attraction"
  }
},
{
  "type": "node",
  "id": 4426148123,
  "lat": 50.9542240,
  "lon": 6.9629957,
  "tags": {
    "abandoned:military": "bunker",
    "access": "private",
    "bunker_type": "hardened_aircraft_shelter",
    "historic": "yes",
    "name": "Röhrenbunker",
    "opening_hours": "Su[1] 14:00-16:00",
    "operator": "Kölner Festungsmuseum",
    "tourism": "attraction",
    "website": "http://museum.crifa.de/index.php/78-startseitenneuigkeiten/76-roehrenbunkerolg",
    "wikipedia": "de:Justizgebäude Reichenspergerplatz#Bunker"
  }
},
{
  "type": "node",
  "id": 5240452225,
  "lat": 50.9276155,
  "lon": 6.9291772,
  "tags": {
    "amenity": "place_of_worship",
    "name": "Raum der Stille",
    "name:en": "Multifaith Prayer Room",
    "operator": "Universität zu Köln",
    "religion": "multifaith",
    "service_times": "07:00 - 19:00 Uhr"
  }
},
{
  "type": "node",
  "id": 6039057241,
  "lat": 50.9375519,
  "lon": 6.9986196,
  "tags": {
    "bunker_type": "personnel shelter",
    "historic": "yes",
    "level": "-1",
    "location": "underground",
    "military": "bunker",
    "note": "Mehrzweckanlage: U-Bahn Station und Zivilschutzbunker",
    "url": "https://welt.unter.koeln/1-Atombunker.html",
    "wikipedia": "de:Zivilschutzbunker Köln-Kalk"
  }
},
{
  "type": "node",
  "id": 8573812104,
  "lat": 50.9399355,
  "lon": 6.9502057,
  "tags": {
    "addr:city": "Köln",
    "addr:country": "DE",
    "addr:postcode": "50667",
    "addr:street": "Neven-DuMont-Straße",
    "amenity": "place_of_worship",
    "building": "chapel",
    "building:architecture": "baroque",
    "denomination": "catholic",
    "historic": "yes",
    "image": "https://de.wikipedia.org/wiki/Datei:St-Maria-in-der-Kupfergasse-K%C3%B6ln-Innenraum.JPG",
    "name": "Laurentinische Kapelle",
    "note": "Die „Gnadenkapelle“ lag und liegt als eigenständiger Einbau zwischen den zwei Eingängen der nachträglich um sie herum erbauten Hauptkirche.",
    "religion": "christian",
    "wikipedia": "de:St. Maria in der Kupfergasse#Laurentinische Kapelle"
  }
},
{
  "type": "node",
  "id": 10059451731,
  "lat": 50.9917200,
  "lon": 7.0578200,
  "tags": {
    "historic": "ruins",
    "name": "Schießplatz Dünnwald",
    "opening_hours": "24/7",
    "ruins": "range",
    "start_date": "1887",
    "wheelchair": "limited",
    "wikidata": "Q50364919",
    "wikipedia": "de:Schießplatz Dünnwald"
  }
},
{
  "type": "way",
  "id": 4532022,
  "center": {
    "lat": 50.9413069,
    "lon": 6.9581112
  },
  "tags": {
    "addr:city": "Köln",
    "addr:country": "DE",
    "addr:housenumber": "4",
    "addr:postcode": "50667",
    "addr:street": "Domkloster",
    "alt_name": "Hohe Domkirche St. Peter und Maria",
    "amenity": "place_of_worship",
    "building": "cathedral",
    "building:architecture": "gothic",
    "building:colour": "#726555",
    "building:material": "stone",
    "building:use": "religious",
    "denomination": "roman_catholic",
    "denotation": "landmark",
    "height": "157.38",
    "heritage": "1",
    "heritage:operator": "whc",
    "image": "http://commons.wikimedia.org/wiki/File:K%C3%B6lner_Dom_Westfassade_2011_%282573-75%29.jpg",
    "importance": "international",
    "layer": "1",
    "level": "1",
    "name": "Kölner Dom",
    "name:cs": "Kolínská katedrála",
    "name:en": "Cologne Cathedral",
    "name:eo": "Katedralo de Kolonjo",
    "name:es": "Catedral de Colonia",
    "name:et": "Kölni katedraal",
    "name:fi": "Kölnin tuomiokirkko",
    "name:fr": "Cathédrale de Cologne",
    "name:he": "קתדרלת קלן",
    "name:hu": "Kölni dóm",
    "name:it": "Duomo di Colonia",
    "name:ja": "ケルン大聖堂",
    "name:nl": "Dom van Keulen",
    "name:pl": "Katedra św. Piotra i Najświętszej Marii Panny w Kolonii",
    "name:ru": "Кёльнский собор",
    "name:zh": "科隆大教堂",
    "note": "building:height=157.38; roof:colour=grey doesn't make sense here.",
    "phone": "+49 221 17940555",
    "place_of_worship": "cathedral",
    "ref:whc": "292",
    "religion": "christian",
    "toilets:wheelchair": "yes",
    "website": "https://www.koelner-dom.de/",
    "whc:inscription_date": "1996",
    "wheelchair": "yes",
    "wheelchair:description": "Behindertentoilette auf der Südseite über Aufzug zu erreichen, am Eingang zur Turmbesteigung.",
    "wikidata": "Q4176",
    "wikipedia": "de:Kölner Dom"
  }
},
{
  "type": "way",
  "id": 4730997,
  "center": {
    "lat": 50.9866426,
    "lon": 7.0562451
  },
  "tags": {
    "name": "Höhenfelder See",
    "natural": "water",
    "water": "lake",
    "wikidata": "Q1643593",
    "wikipedia": "de:Höhenfelder See"
  }
},
{
  "type": "way",
  "id": 9703454,
  "center": {
    "lat": 50.9436540,
    "lon": 6.9338021
  },
  "tags": {
    "addr:city": "Köln",
    "addr:country": "DE",
    "addr:housenumber": "2",
    "addr:postcode": "50672",
    "addr:street": "Hans-Böckler-Platz",
    "building": "train_station",
    "name": "Bahnhof Köln West",
    "wikipedia": "de:Bahnhof Köln West"
  }
},
{
  "type": "way",
  "id": 10212387,
  "center": {
    "lat": 50.9285535,
    "lon": 6.9479885
  },
  "tags": {
    "amenity": "place_of_worship",
    "building": "church",
    "building:architecture": "romanesque",
    "church:style": "romanesque",
    "denomination": "catholic",
    "name": "St. Pantaleon",
    "name:en": "St. Pantaleon's Church",
    "name:fi": "sankt pantheon",
    "name:fr": "Église Saint-Pantaléon de Cologne",
    "name:it": "Chiesa di San Pantaleone",
    "name:nl": "Sint-Pantaleonkerk",
    "name:pl": "Kościół św. Pantaleona w Kolonii",
    "name:ru": "Церковь Святого Пантелеймона",
    "name:zh": "聖龐大良教堂",
    "religion": "christian",
    "wheelchair": "no",
    "wikidata": "Q565187",
    "wikipedia": "de:St. Pantaleon (Köln)"
  }
},
{
  "type": "way",
  "id": 16367389,
  "center": {
    "lat": 50.9428147,
    "lon": 6.9617074
  },
  "tags": {
    "addr:city": "Köln",
    "addr:country": "DE",
    "addr:housenumber": "1",
    "addr:postcode": "50668",
    "addr:street": "Goldgasse",
    "amenity": "theatre",
    "building": "theatre",
    "building:use": "cultural",
    "name": "Musical Dome",
    "toilets:wheelchair": "yes",
    "website": "http://musical-dome.de/",
    "wheelchair": "yes",
    "wheelchair:description": "Es kann nur eine Ebene benutz werden wo sich aber alles befindet",
    "wikidata": "Q1954950",
    "wikipedia": "de:Musical Dome"
  }
},
{
  "type": "way",
  "id": 20353552,
  "center": {
    "lat": 50.9363047,
    "lon": 6.9729489
  },
  "tags": {
    "addr:city": "Köln",
    "addr:country": "DE",
    "addr:housenumber": "64",
    "addr:postcode": "50679",
    "addr:street": "Deutzer Freiheit",
    "amenity": "place_of_worship",
    "architect": "Caspar Clemens Pickel",
    "building": "church",
    "building:architecture": "neo-romanesque",
    "denomination": "catholic",
    "diocese": "Erzbistum Köln",
    "name": "St. Heribert",
    "opening_hours": "Mo-Sa 09:00-18:00; Su 09:15-18:00",
    "religion": "christian",
    "website": "http://kirche-deutz-poll.de/",
    "wheelchair": "yes",
    "wikidata": "Q1600256",
    "wikipedia": "de:St. Heribert (Köln)"
  }
},
{
  "type": "way",
  "id": 22761958,
  "center": {
    "lat": 50.9900112,
    "lon": 6.8322171
  },
  "tags": {
    "name": "Pulheimer See",
    "natural": "water",
    "source": "yahoo",
    "water": "lake",
    "wikidata": "Q2117789",
    "wikipedia": "de:Pulheimer See"
  }
},
{
  "type": "way",
  "id": 23566808,
  "center": {
    "lat": 50.9374189,
    "lon": 6.9507855
  },
  "tags": {
    "addr:city": "Köln",
    "addr:country": "DE",
    "addr:housenumber": "4",
    "addr:postcode": "50667",
    "addr:street": "Brüderstraße",
    "amenity": "theatre",
    "building": "yes",
    "building:use": "cultural",
    "heritage": "8",
    "heritage:operator": "UntereDenkmalbehörde",
    "heritage:ref": "4973",
    "historic": "heritage",
    "image": "http://commons.wikimedia.org/wiki/File:Schauspiel_K%C3%B6ln_(4227-29).jpg",
    "name": "Schauspielhaus Köln",
    "source": "yahoo",
    "website": "http://www.schauspielkoeln.de/",
    "wikidata": "Q832079",
    "wikipedia": "de:Schauspiel Köln"
  }
},
{
  "type": "way",
  "id": 23566809,
  "center": {
    "lat": 50.9379922,
    "lon": 6.9512598
  },
  "tags": {
    "addr:city": "Köln",
    "addr:country": "DE",
    "addr:housenumber": "2",
    "addr:postcode": "50667",
    "addr:street": "Offenbachplatz",
    "amenity": "theatre",
    "building": "yes",
    "building:use": "cultural",
    "heritage": "8",
    "heritage:operator": "UntereDenkmalbehörde",
    "heritage:ref": "5000",
    "historic": "heritage",
    "image": "http://commons.wikimedia.org/wiki/File:Oper_K%C3%B6ln_(4202-04).jpg",
    "name": "Oper der Stadt Köln",
    "name:de": "Opernhaus",
    "name:en": "Cologne Opera",
    "name:fr": "Opéra de Cologne",
    "name:nl": "Oper Köln",
    "source": "yahoo",
    "website": "http://www.operkoeln.com/",
    "wikidata": "Q869662",
    "wikipedia": "de:Oper Köln"
  }
},
{
  "type": "way",
  "id": 24463323,
  "center": {
    "lat": 50.9346933,
    "lon": 6.9516966
  },
  "tags": {
    "addr:city": "Köln",
    "addr:country": "DE",
    "addr:housenumber": "17",
    "addr:postcode": "50676",
    "addr:street": "Cäcilienkloster",
    "amenity": "place_of_worship",
    "building": "church",
    "building:use": "religious",
    "church:style": "romanesque",
    "denomination": "catholic",
    "name": "St. Cäcilien",
    "name:pl": "Kościół Świętej Cecylii w Kolonii",
    "phone": "+49 221 22131355",
    "religion": "christian",
    "toilets:wheelchair": "no",
    "website": "http://www.museum-schnuetgen.de",
    "wheelchair": "limited",
    "wheelchair:description": "MIttelschiff, Chor, Sakristei und Krypta nicht barrierefrei zugänglich",
    "wikidata": "Q1389",
    "wikipedia": "de:St. Cäcilien"
  }
},
{
  "type": "way",
  "id": 24463332,
  "center": {
    "lat": 50.9343733,
    "lon": 6.9517780
  },
  "tags": {
    "addr:city": "Köln",
    "addr:country": "DE",
    "addr:housenumber": "1b",
    "addr:postcode": "50676",
    "addr:street": "Jabachstraße",
    "alt_name": "Kunst-Station",
    "amenity": "place_of_worship",
    "building": "yes",
    "building:use": "residential",
    "denomination": "catholic",
    "heritage": "8",
    "heritage:operator": "UntereDenkmalbehörde",
    "heritage:ref": "1017",
    "historic": "heritage",
    "image": "https://commons.wikimedia.org/wiki/File:St._Peter_K%C3%B6ln_-_S%C3%BCdseite_(4945-47).jpg",
    "name": "St. Peter",
    "religion": "christian",
    "source": "yahoo",
    "tourism": "artwork",
    "website": "http://www.sankt-peter-koeln.de/",
    "wikidata": "Q1410623",
    "wikipedia": "de:St. Peter (Köln)"
  }
},
{
  "type": "way",
  "id": 25048555,
  "center": {
    "lat": 50.9369337,
    "lon": 6.9582543
  },
  "tags": {
    "addr:city": "Köln",
    "addr:housenumber": "4",
    "addr:postcode": "50667",
    "addr:street": "Quatermarkt",
    "building": "place_of_worship",
    "historic": "ruins",
    "name": "Alt St. Alban",
    "name:en": "Old St Albans",
    "wikidata": "Q433272",
    "wikipedia": "de:Alt St. Alban"
  }
},
{
  "type": "way",
  "id": 25219546,
  "center": {
    "lat": 50.9393712,
    "lon": 6.9547875
  },
  "tags": {
    "addr:city": "Köln",
    "addr:country": "DE",
    "addr:housenumber": "2",
    "addr:postcode": "50667",
    "addr:street": "Kolpingplatz",
    "amenity": "place_of_worship",
    "building": "church",
    "building:use": "religious",
    "denomination": "catholic",
    "heritage": "8",
    "heritage:operator": "UntereDenkmalbehörde",
    "heritage:ref": "927",
    "historic": "heritage",
    "image": "https://commons.wikimedia.org/wiki/File:Minoritenkirche_K%C3%B6ln_im_Fr%C3%BChling_(1892-94).jpg",
    "name": "Minoritenkirche",
    "religion": "christian",
    "source": "survey",
    "wheelchair": "yes",
    "wikidata": "Q1937497",
    "wikipedia": "de:Minoritenkirche (Köln)"
  }
},
{
  "type": "way",
  "id": 25270980,
  "center": {
    "lat": 50.9385743,
    "lon": 6.9616193
  },
  "tags": {
    "addr:city": "Köln",
    "addr:country": "DE",
    "addr:housenumber": "8",
    "addr:postcode": "50667",
    "addr:street": "Martinspförtchen",
    "amenity": "place_of_worship",
    "building": "church",
    "building:architecture": "romanesque",
    "building:use": "religious",
    "church:style": "romanesque",
    "denomination": "catholic",
    "heritage": "8",
    "heritage:ref": "851",
    "historic": "heritage",
    "image": "http://commons.wikimedia.org/wiki/File:Fischmarkt.jpg",
    "name": "Groß St. Martin",
    "name:en": "Great St. Martin Church",
    "name:fr": "Église Saint-Martin de Cologne",
    "name:pl": "Kościół Świętego Marcina w Kolonii",
    "name:zh": "大聖馬丁教堂",
    "opening_hours": "Mo off; Tu-Sa 09:30-19:39; Su 10:00-19:15",
    "religion": "christian",
    "service_times": "Mo off; Tu-Fr 07:00, 12:30, 18:00, 18:30; Sa 08:00, 12:30, 18:00, 18:30; Su 08:00, 11:00, 18:30",
    "wikidata": "Q564520",
    "wikipedia": "de:Groß St. Martin"
  }
},
{
  "type": "way",
  "id": 25284355,
  "center": {
    "lat": 50.9419526,
    "lon": 6.9548971
  },
  "tags": {
    "addr:city": "Köln",
    "addr:country": "DE",
    "addr:housenumber": "1",
    "addr:postcode": "50667",
    "addr:street": "Andreaskloster",
    "amenity": "place_of_worship",
    "building": "church",
    "building:architecture": "romanesque, gothic",
    "building:use": "religious",
    "church:style": "romanesque",
    "denomination": "catholic",
    "height": "12.46",
    "heritage": "8",
    "heritage:operator": "UntereDenkmalbehörde",
    "heritage:ref": "849",
    "historic": "heritage",
    "image": "https://commons.wikimedia.org/wiki/File:Gesch%C3%A4ftshaus_Kom%C3%B6dienstr._2-9447.jpg",
    "name": "St.Andreas",
    "name:fr": "Église Saint-André",
    "name:ru": "Церковь Святого Андрея",
    "religion": "christian",
    "roof:height": "0.06",
    "roof:shape": "gabled",
    "website": "http://www.sankt-andreas.de/",
    "wikidata": "Q564898",
    "wikipedia": "de:St. Andreas (Köln)"
  }
},
{
  "type": "way",
  "id": 26230282,
  "center": {
    "lat": 50.9237435,
    "lon": 6.9669422
  },
  "tags": {
    "addr:city": "Köln",
    "addr:country": "DE",
    "addr:housenumber": "2",
    "addr:postcode": "50678",
    "addr:street": "Am Bayenturm",
    "alt_name": "FrauenMediaTurm",
    "barrier": "city_wall",
    "building": "yes",
    "building:use": "cultural",
    "historic": "city_gate",
    "man_made": "tower",
    "name": "Bayenturm",
    "tower:type": "defensive",
    "wikidata": "Q812121",
    "wikipedia": "de:Bayenturm"
  }
},
{
  "type": "way",
  "id": 26953592,
  "center": {
    "lat": 50.9189006,
    "lon": 6.8571300
  },
  "tags": {
    "name": "Südlicher Randkanal",
    "waterway": "drain",
    "wikipedia": "de:Kölner Randkanal"
  }
},
{
  "type": "way",
  "id": 26953611,
  "center": {
    "lat": 50.9173146,
    "lon": 6.8580087
  },
  "tags": {
    "layer": "-1",
    "name": "Südlicher Randkanal",
    "tunnel": "yes",
    "waterway": "drain",
    "wikipedia": "de:Kölner Randkanal"
  }
},
{
  "type": "way",
  "id": 26953612,
  "center": {
    "lat": 50.8963857,
    "lon": 6.8757236
  },
  "tags": {
    "name": "Südlicher Randkanal",
    "waterway": "drain",
    "wikipedia": "de:Kölner Randkanal"
  }
},
{
  "type": "way",
  "id": 27012197,
  "center": {
    "lat": 50.9486385,
    "lon": 6.9207601
  },
  "tags": {
    "addr:city": "Köln",
    "addr:country": "DE",
    "addr:housenumber": "286",
    "addr:postcode": "50823",
    "addr:street": "Venloer Straße",
    "alt_name": "St. Joseph",
    "amenity": "place_of_worship",
    "building": "church",
    "building:use": "religious",
    "denomination": "catholic",
    "name": "Sankt Joseph",
    "religion": "christian",
    "source": "photography",
    "wikidata": "Q62587817",
    "wikipedia": "de:St. Joseph (Köln-Ehrenfeld)"
  }
},
{
  "type": "way",
  "id": 27274393,
  "center": {
    "lat": 50.9430590,
    "lon": 6.9566598
  },
  "tags": {
    "addr:city": "Köln",
    "addr:country": "DE",
    "addr:housenumber": "30",
    "addr:postcode": "50668",
    "addr:street": "Marzellenstraße",
    "amenity": "place_of_worship",
    "architect": "Christoph Wamser",
    "architect:wikipedia": "https://de.wikipedia.org/wiki/Christoph_Wamser",
    "building": "church",
    "building:architecture": "baroque",
    "building:use": "religious",
    "denomination": "catholic",
    "heritage": "8",
    "heritage:operator": "UntereDenkmalbehörde",
    "heritage:ref": "870",
    "historic": "heritage",
    "image": "https://commons.wikimedia.org/wiki/File:K%C3%B6ln_st_mari%C3%A4_himmelfahrt_fassade.jpg",
    "name": "St. Mariä Himmelfahrt",
    "name:nl": "Maria-Hemelvaartkerk",
    "name:ru": "Церковь Успения Пресвятой Девы Марии",
    "religion": "christian",
    "start_date": "1629 / 1678",
    "wikidata": "Q880674",
    "wikipedia": "de:St. Mariä Himmelfahrt (Köln)"
  }
},
{
  "type": "way",
  "id": 27340151,
  "center": {
    "lat": 50.9723388,
    "lon": 7.0699609
  },
  "tags": {
    "layer": "-1",
    "name": "Strunde",
    "source": "survey",
    "tunnel": "yes",
    "waterway": "stream",
    "wikipedia": "de:Strunde"
  }
},
{
  "type": "way",
  "id": 27340375,
  "center": {
    "lat": 50.9723725,
    "lon": 7.0705248
  },
  "tags": {
    "layer": "-1",
    "name": "Strunde",
    "source": "survey",
    "tunnel": "yes",
    "waterway": "stream",
    "wikipedia": "de:Strunde"
  }
},
{
  "type": "way",
  "id": 27610708,
  "center": {
    "lat": 50.9303750,
    "lon": 6.9399845
  },
  "tags": {
    "amenity": "place_of_worship",
    "building": "church",
    "denomination": "catholic",
    "name": "Herz Jesu",
    "religion": "christian",
    "wheelchair": "limited",
    "wikidata": "Q21169003",
    "wikipedia": "de:Herz-Jesu-Kirche (Köln)#Zülpicher Platz"
  }
},
{
  "type": "way",
  "id": 27780576,
  "center": {
    "lat": 50.9457132,
    "lon": 6.9543363
  },
  "tags": {
    "addr:city": "Köln",
    "addr:country": "DE",
    "addr:housenumber": "30",
    "addr:postcode": "50668",
    "addr:street": "Ursulaplatz",
    "amenity": "place_of_worship",
    "building": "church",
    "church:style": "romanesque",
    "denomination": "catholic",
    "name": "St. Ursula",
    "name:ru": "Церковь Святой Урсулы",
    "religion": "christian",
    "source": "survey",
    "wheelchair": "no",
    "wikidata": "Q266866",
    "wikipedia": "de:St. Ursula (Köln)"
  }
},
{
  "type": "way",
  "id": 28535987,
  "center": {
    "lat": 50.9199634,
    "lon": 6.9527849
  },
  "tags": {
    "addr:city": "Köln",
    "addr:country": "DE",
    "addr:housenumber": "2-4",
    "addr:postcode": "50677",
    "addr:street": "Martin-Luther-Platz",
    "amenity": "place_of_worship",
    "building": "church",
    "deanery": "Evangelischer Kirchenkreis Köln-Mitte",
    "denomination": "protestant",
    "diocese": "Evangelische Kirche im Rheinland",
    "name": "Lutherkirche Südstadt",
    "parish": "Evangelische Gemeinde Köln",
    "religion": "christian",
    "service_times": "Su 11:15",
    "website": "https://www.lutherkirche-koeln.de/",
    "wheelchair": "limited",
    "wikidata": "Q1877950",
    "wikimedia_commons": "Category:Lutherkirche (Köln)",
    "wikipedia": "de:Lutherkirche (Köln)"
  }
},
{
  "type": "way",
  "id": 28870737,
  "center": {
    "lat": 50.9962209,
    "lon": 6.9899546
  },
  "tags": {
    "addr:city": "Köln",
    "addr:country": "DE",
    "addr:housenumber": "3",
    "addr:postcode": "51061",
    "addr:street": "René-Bohn-Straße",
    "amenity": "place_of_worship",
    "building": "church",
    "building:use": "religious",
    "denomination": "catholic",
    "name": "St. Pius X",
    "religion": "christian",
    "wikidata": "Q62588235",
    "wikipedia": "de:St. Pius X. (Köln)"
  }
},
{
  "type": "way",
  "id": 28908575,
  "center": {
    "lat": 50.9579926,
    "lon": 6.9736398
  },
  "tags": {
    "attraction": "animal",
    "barrier": "fence",
    "layer": "1",
    "name": "Persischer Wildesel",
    "name:en": "Persian Onager",
    "natural": "sand",
    "operator": "Zoologischer Garten Köln",
    "species": "Equus hemionus onager",
    "toilets:wheelchair": "yes",
    "tourism": "attraction",
    "wheelchair": "yes",
    "wikipedia": "de:Asiatischer Esel",
    "zoo": "enclosure"
  }
},
{
  "type": "way",
  "id": 28972821,
  "center": {
    "lat": 50.9364559,
    "lon": 7.0865152
  },
  "tags": {
    "name": "Flehbach",
    "waterway": "stream",
    "wikipedia": "de:Flehbach"
  }
},
{
  "type": "way",
  "id": 28972823,
  "center": {
    "lat": 50.9494082,
    "lon": 7.0563430
  },
  "tags": {
    "name": "Flehbach",
    "waterway": "stream",
    "wikipedia": "de:Flehbach"
  }
},
{
  "type": "way",
  "id": 28972824,
  "center": {
    "lat": 50.9494149,
    "lon": 7.0572930
  },
  "tags": {
    "layer": "-1",
    "name": "Flehbach",
    "tunnel": "yes",
    "waterway": "stream",
    "wikipedia": "de:Flehbach"
  }
},
{
  "type": "way",
  "id": 28973889,
  "center": {
    "lat": 50.9176335,
    "lon": 6.9272596
  },
  "tags": {
    "addr:city": "Köln",
    "addr:country": "DE",
    "addr:housenumber": "6",
    "addr:postcode": "50937",
    "addr:street": "Emmastraße",
    "amenity": "place_of_worship",
    "building": "community_centre",
    "building:use": "gathering",
    "deanery": "Evangelischer Kirchenkreis Köln-Mitte",
    "denomination": "protestant",
    "diocese": "Evangelische Kirche im Rheinland",
    "name": "Tersteegenhaus",
    "parish": "Evangelische Kirchengemeinde Köln-Klettenberg",
    "religion": "christian",
    "service_times": "Su 9:30",
    "toilets:wheelchair": "yes",
    "website": "https://www.kirche-klettenberg.de/",
    "wheelchair": "yes",
    "wikidata": "Q1732645",
    "wikipedia": "de:Tersteegenhaus"
  }
},
{
  "type": "way",
  "id": 29207390,
  "center": {
    "lat": 50.9398145,
    "lon": 6.9502032
  },
  "tags": {
    "addr:city": "Köln",
    "addr:country": "DE",
    "addr:housenumber": "7",
    "addr:postcode": "50667",
    "addr:street": "Neven-DuMont-Straße",
    "amenity": "place_of_worship",
    "building": "church",
    "building:architecture": "baroque",
    "building:colour": "firebrick",
    "building:material": "brick",
    "building:use": "religious",
    "denomination": "catholic",
    "heritage": "8",
    "heritage:operator": "UntereDenkmalbehörde",
    "heritage:ref": "1011",
    "historic": "heritage",
    "name": "St. Maria in der Kupfergasse",
    "religion": "christian",
    "source": "yahoo",
    "website": "http://www.kupfergasse.de/",
    "wheelchair": "yes",
    "wikidata": "Q2320737",
    "wikipedia": "de:St. Maria in der Kupfergasse"
  }
},
{
  "type": "way",
  "id": 29215129,
  "center": {
    "lat": 50.9373497,
    "lon": 6.9522231
  },
  "tags": {
    "addr:city": "Köln",
    "addr:country": "DE",
    "addr:housenumber": "2",
    "addr:postcode": "50667",
    "addr:street": "Brüderstraße",
    "amenity": "theatre",
    "building": "yes",
    "heritage": "8",
    "heritage:operator": "UntereDenkmalbehörde",
    "heritage:ref": "4972",
    "historic": "heritage",
    "name": "Außenspielstätte am Offenbachplatz",
    "old_name": "Opernterrassen",
    "operator": "Schauspiel Köln",
    "website": "https://www.schauspiel.koeln/haus/aussenspielstaette/",
    "wheelchair": "yes",
    "wikidata": "Q2026691",
    "wikipedia": "de:Opernterrassen"
  }
},
{
  "type": "way",
  "id": 29420539,
  "center": {
    "lat": 50.9992909,
    "lon": 7.0316609
  },
  "tags": {
    "addr:city": "Köln",
    "addr:country": "DE",
    "addr:housenumber": "55",
    "addr:postcode": "51069",
    "addr:street": "Prämonstratenserstraße",
    "addr:suburb": "Dünnwald",
    "amenity": "place_of_worship",
    "building": "church",
    "building:architecture": "romanesque;gothic",
    "building:use": "religious",
    "denomination": "catholic",
    "diocese": "Erzbistum Köln",
    "heritage": "8",
    "heritage:operator": "UntereDenkmalbehörde",
    "heritage:ref": "930",
    "heritage:since": "1982-01-18",
    "historic": "church",
    "image": "https://de.wikipedia.org/wiki/Datei:St._Nikolaus_K%C3%B6ln-D%C3%BCnnwald1.JPG",
    "name": "St. Nikolaus",
    "religion": "christian",
    "wheelchair": "yes",
    "wikidata": "Q1768000",
    "wikipedia": "de:St. Nikolaus (Köln-Dünnwald)"
  }
},
{
  "type": "way",
  "id": 29712017,
  "center": {
    "lat": 50.9076888,
    "lon": 6.9429460
  },
  "tags": {
    "addr:city": "Köln",
    "addr:country": "DE",
    "addr:postcode": "50969",
    "amenity": "place_of_worship",
    "building": "church",
    "building:use": "religious",
    "deanery": "Evangelischer Kirchenkreis Köln-Süd",
    "denomination": "protestant",
    "diocese": "Evangelische Kirche im Rheinland",
    "name": "Melanchthonkirche",
    "parish": "Evangelische Kirchengemeinde Köln-Zollstock",
    "religion": "christian",
    "service_times": "Su 10:00",
    "source": "openstreetbugs",
    "start_date": "1930",
    "website": "https://www.melanchthonkirche.de/",
    "wheelchair": "yes",
    "wheelchair:description": "Stufenlos über den Eingang Gemeindezentrum/Pfarrgarten Ecke Breniger Str. - Walberberger Str. - Bornheimer Str.",
    "wikidata": "Q1777959",
    "wikipedia": "de:Melanchthonkirche (Köln)"
  }
},
{
  "type": "way",
  "id": 30079415,
  "center": {
    "lat": 50.9346002,
    "lon": 6.9584053
  },
  "tags": {
    "addr:city": "Köln",
    "addr:country": "DE",
    "addr:housenumber": "3",
    "addr:postcode": "50676",
    "addr:street": "Lichhof",
    "amenity": "place_of_worship",
    "building": "church",
    "building:architecture": "romanesque",
    "church:style": "romanesque",
    "denomination": "catholic",
    "image": "File:Köln st maria im kapitol dreikonchenanlage 251204.jpg",
    "name": "St. Maria im Kapitol",
    "religion": "christian",
    "start_date": "C11",
    "website": "http://www.maria-im-kapitol.de/",
    "wheelchair": "yes",
    "wikidata": "Q598352",
    "wikipedia": "de:St. Maria im Kapitol"
  }
},
{
  "type": "way",
  "id": 30079779,
  "center": {
    "lat": 50.9342792,
    "lon": 6.9588751
  },
  "tags": {
    "building": "yes",
    "historic": "city_gate",
    "name": "Dreikönigenpförtchen",
    "source": "photography",
    "website": "https://www.romanische-kirchen-koeln.de/732.html",
    "wikidata": "Q1257917",
    "wikipedia": "de:Dreikönigenpförtchen"
  }
},
{
  "type": "way",
  "id": 30270355,
  "center": {
    "lat": 50.9697500,
    "lon": 7.0086334
  },
  "tags": {
    "addr:city": "Köln",
    "addr:country": "DE",
    "addr:housenumber": "20",
    "addr:postcode": "51063",
    "addr:street": "Berliner Straße",
    "building": "yes",
    "building:levels": "3",
    "building:use": "cultural",
    "historic": "yes",
    "name": "Kulturbunker Mülheim",
    "wikidata": "Q1791640",
    "wikipedia": "de:Kulturbunker Köln-Mülheim"
  }
},
{
  "type": "way",
  "id": 30394413,
  "center": {
    "lat": 51.0148258,
    "lon": 7.0064731
  },
  "tags": {
    "aeroway": "aerodrome",
    "icao": "EDKL",
    "name": "Flugplatz Kurtekotten",
    "operator": "Luftsportklub Bayer Leverkusen",
    "phone": "+49 214 8332 22",
    "source": "yahoo",
    "website": "https://www.edkl.de/",
    "wikidata": "Q1433702",
    "wikipedia": "de:Flugplatz Leverkusen"
  }
},
{
  "type": "way",
  "id": 30712563,
  "center": {
    "lat": 50.9347510,
    "lon": 7.0973414
  },
  "tags": {
    "name": "Flehbach",
    "waterway": "stream",
    "wikipedia": "de:Flehbach"
  }
},
{
  "type": "way",
  "id": 30712570,
  "center": {
    "lat": 50.9339872,
    "lon": 7.0953368
  },
  "tags": {
    "layer": "-1",
    "name": "Flehbach",
    "tunnel": "yes",
    "waterway": "stream",
    "wikipedia": "de:Flehbach"
  }
},
{
  "type": "way",
  "id": 30713749,
  "center": {
    "lat": 50.9448170,
    "lon": 7.0763092
  },
  "tags": {
    "layer": "-1",
    "name": "Flehbach",
    "tunnel": "yes",
    "waterway": "stream",
    "wikipedia": "de:Flehbach"
  }
},
{
  "type": "way",
  "id": 30713750,
  "center": {
    "lat": 50.9473077,
    "lon": 7.0671137
  },
  "tags": {
    "name": "Flehbach",
    "waterway": "stream",
    "wikipedia": "de:Flehbach"
  }
},
{
  "type": "way",
  "id": 31290799,
  "center": {
    "lat": 50.9431395,
    "lon": 6.9515840
  },
  "tags": {
    "amenity": "place_of_worship",
    "building": "church",
    "denomination": "russian_orthodox",
    "heritage": "8",
    "heritage:operator": "UntereDenkmalbehörde",
    "heritage:ref": "1018",
    "historic": "heritage",
    "name": "Hl. Konstantin u. Helena",
    "old_name": "Maria Ablass Kapelle",
    "religion": "christian",
    "source": "photography",
    "wikidata": "Q2320635",
    "wikipedia": "de:St. Maria Ablass"
  }
},
{
  "type": "way",
  "id": 31776681,
  "center": {
    "lat": 50.9319032,
    "lon": 6.9568456
  },
  "tags": {
    "amenity": "place_of_worship",
    "building": "church",
    "building:architecture": "romanesque",
    "church:style": "romanesque",
    "denomination": "roman_catholic",
    "heritage": "8",
    "heritage:operator": "UntereDenkmalbehörde",
    "heritage:ref": "914",
    "historic": "heritage",
    "name": "St. Georg",
    "name:pl": "Kościół Świętego Jerzego w Kolonii",
    "name:ru": "Церковь Святого Георгия",
    "opening_hours": "Mo-Su,PH 08:30-18:00",
    "religion": "christian",
    "wikidata": "Q316362",
    "wikipedia": "de:St. Georg (Köln)"
  }
},
{
  "type": "way",
  "id": 31990421,
  "center": {
    "lat": 50.9148779,
    "lon": 6.9185098
  },
  "tags": {
    "addr:city": "Köln",
    "addr:country": "DE",
    "addr:housenumber": "1",
    "addr:postcode": "50937",
    "addr:street": "Elisabeth-von-Mumm-Platz",
    "amenity": "place_of_worship",
    "architect": "Dominikus Böhm, Gottfried Böhm",
    "building": "church",
    "heritage": "8",
    "heritage:operator": "Amt für Denkmalschutz und Denkmalpflege Köln",
    "heritage:operator:short": "Denkmalamt Köln",
    "heritage:ref": "5020",
    "heritage:since": "1989-05-19",
    "name": "Zur heiligen Familie",
    "religion": "christian",
    "wikidata": "Q230292",
    "wikipedia": "de:Zur Heiligen Familie (Köln)",
    "year_of_construction": "1951-1966"
  }
},
{
  "type": "way",
  "id": 32009538,
  "center": {
    "lat": 50.9287088,
    "lon": 6.9591897
  },
  "tags": {
    "amenity": "place_of_worship",
    "building": "church",
    "building:architecture": "baroque",
    "denomination": "catholic",
    "name": "St. Gregorius am Elend",
    "religion": "christian",
    "roof:shape": "hipped",
    "source": "photography",
    "wikidata": "Q1252241",
    "wikipedia": "de:St. Gregorius im Elend"
  }
},
{
  "type": "way",
  "id": 32726156,
  "center": {
    "lat": 50.9500778,
    "lon": 6.9667276
  },
  "tags": {
    "addr:city": "Köln",
    "addr:country": "DE",
    "addr:housenumber": "80",
    "addr:postcode": "50668",
    "addr:street": "Konrad-Adenauer-Ufer",
    "building": "yes",
    "heritage": "8",
    "heritage:operator": "UntereDenkmalbehörde",
    "heritage:ref": "82",
    "historic": "building",
    "layer": "1",
    "name": "Bastei",
    "wikidata": "Q810573",
    "wikipedia": "de:Bastei (Köln)"
  }
},
{
  "type": "way",
  "id": 32878250,
  "center": {
    "lat": 50.9444508,
    "lon": 6.9699267
  },
  "tags": {
    "architect": "Adolf Abel",
    "building": "yes",
    "height": "85",
    "heritage": "8",
    "heritage:operator": "UntereDenkmalbehörde",
    "heritage:ref": "73",
    "historic": "heritage",
    "image": "http://commons.wikimedia.org/wiki/File:Messeturm_K%C3%B6ln_mit_RTL-Werbung-3059.jpg",
    "man_made": "tower",
    "name": "Messeturm",
    "wikidata": "Q881186",
    "wikipedia": "de:Messeturm Köln"
  }
},
{
  "type": "way",
  "id": 34962786,
  "center": {
    "lat": 50.9244226,
    "lon": 6.9311830
  },
  "tags": {
    "addr:city": "Köln",
    "addr:country": "DE",
    "addr:housename": "Studiobühne",
    "addr:housenumber": "16a",
    "addr:postcode": "50937",
    "addr:street": "Universitätsstraße",
    "amenity": "theatre",
    "building": "apartments",
    "building:use": "residential",
    "name": "Alte Mensa",
    "ref": "332a",
    "website": "http://www.studiobuehne-koeln.de/",
    "wheelchair": "yes",
    "wikipedia": "de:Studiobühne Köln"
  }
},
{
  "type": "way",
  "id": 34999318,
  "center": {
    "lat": 50.9246456,
    "lon": 6.9555733
  },
  "tags": {
    "addr:city": "Köln",
    "addr:country": "DE",
    "addr:housenumber": "7",
    "addr:postcode": "50678",
    "addr:street": "Kartäusergasse",
    "amenity": "place_of_worship",
    "building": "church",
    "building:use": "religious",
    "capacity": "yes",
    "deanery": "Evangelischer Kirchenkreis Köln-Mitte",
    "denomination": "protestant",
    "diocese": "Evangelische Kirche im Rheinland",
    "name": "Kartäuserkirche",
    "parish": "Evangelische Gemeinde Köln",
    "religion": "christian",
    "service_times": "Su 9:45; Su[4] 18:00",
    "source": "survey",
    "website": "https://www.kartaeuserkirche-koeln.de/",
    "wikidata": "Q1734671",
    "wikipedia": "de:Kartäuserkirche (Köln)"
  }
},
{
  "type": "way",
  "id": 35006256,
  "center": {
    "lat": 50.9242347,
    "lon": 6.9531075
  },
  "tags": {
    "barrier": "city_wall",
    "building": "yes",
    "heritage": "yes",
    "historic": "city_gate",
    "name": "Ulrepforte",
    "source": "photography",
    "tourism": "attraction",
    "wikidata": "Q2475459",
    "wikimedia_commons": "Category:Ulrepforte und Kartäuser-Mühle, Köln",
    "wikipedia": "de:Ulrepforte"
  }
},
{
  "type": "way",
  "id": 36785191,
  "center": {
    "lat": 50.9330078,
    "lon": 6.9626097
  },
  "tags": {
    "addr:city": "Köln",
    "addr:country": "DE",
    "addr:housenumber": "8",
    "addr:postcode": "50676",
    "addr:street": "An Lyskirchen",
    "amenity": "place_of_worship",
    "building": "church",
    "building:use": "religious",
    "church:style": "romanesque",
    "denomination": "catholic",
    "heritage": "8",
    "heritage:ref": "908",
    "historic": "heritage",
    "name": "St. Maria Lyskirchen",
    "name:nl": "Sint-Maria in Lyskirchen",
    "name:pl": "Kościół Najświętszej Marii Panny na Lyskirchen w Kolonii",
    "name:ru": "Церковь Пресвятой Девы Марии в Люскирхене",
    "religion": "christian",
    "source": "survey",
    "website": "http://www.lyskirchen.de/",
    "wikidata": "Q323845",
    "wikipedia": "de:St. Maria in Lyskirchen"
  }
},
{
  "type": "way",
  "id": 36936466,
  "center": {
    "lat": 50.9536615,
    "lon": 6.9153206
  },
  "tags": {
    "addr:city": "Köln",
    "addr:country": "DE",
    "addr:housenumber": "32",
    "addr:postcode": "50825",
    "addr:street": "Platenstraße",
    "amenity": "theatre",
    "building": "culture",
    "email": "info@uraniatheater.de",
    "name": "Urania Theater",
    "phone": "+49 221 17098260",
    "website": "https://uraniatheater.de",
    "wikidata": "Q48755314",
    "wikipedia": "de:Urania Theater"
  }
},
{
  "type": "way",
  "id": 38028565,
  "center": {
    "lat": 50.9411113,
    "lon": 6.9536008
  },
  "tags": {
    "amenity": "place_of_worship",
    "building": "church",
    "denomination": "roman_catholic",
    "name": "St. Maria ad Ortum",
    "religion": "christian",
    "source": "photography",
    "wheelchair": "yes",
    "wikidata": "Q2320707",
    "wikipedia": "de:St. Maria ad Ortum"
  }
},
{
  "type": "way",
  "id": 38078899,
  "center": {
    "lat": 50.9642221,
    "lon": 6.9983070
  },
  "tags": {
    "addr:city": "Köln",
    "addr:country": "DE",
    "addr:housenumber": "2",
    "addr:postcode": "51063",
    "addr:street": "Kirchstraße",
    "amenity": "place_of_worship",
    "building": "church",
    "building:use": "religious",
    "denomination": "catholic",
    "name": "St. Clemens",
    "operator": "Katholische Kirchengemeinde St. Clemens und Mauritius",
    "religion": "christian",
    "website": "https://www.clemens-mauritius.de/st-clemens",
    "wikidata": "Q2317811",
    "wikipedia": "de:St. Clemens (Köln-Mülheim)"
  }
},
{
  "type": "way",
  "id": 38246033,
  "center": {
    "lat": 50.9432407,
    "lon": 6.9459063
  },
  "tags": {
    "addr:city": "Köln",
    "addr:country": "DE",
    "addr:housenumber": "4",
    "addr:postcode": "50670",
    "addr:street": "Gereonshof",
    "amenity": "place_of_worship",
    "building": "church",
    "church:style": "romanesque",
    "denomination": "catholic",
    "heritage": "8",
    "heritage:operator": "UntereDenkmalbehörde",
    "heritage:ref": "862",
    "historic": "heritage",
    "image": "https://commons.wikimedia.org/wiki/File:St._Gereon_K%C3%B6ln_-_Ostseite_(2520).jpg",
    "name": "St. Gereon",
    "name:en": "St. Gereon's Basilica",
    "name:hu": "Szent Gereon-templom",
    "name:it": "Basilica di San Gereone",
    "name:nl": "Sint-Gereonskerk",
    "name:pl": "Kościół Świętego Gereona w Kolonii",
    "name:ru": "Церковь Святого Геро",
    "name:tr": "Aziz Gereon Basilikası",
    "name:zh": "圣格里安圣殿",
    "religion": "christian",
    "wheelchair": "limited",
    "wikidata": "Q682188",
    "wikipedia": "de:St. Gereon"
  }
},
{
  "type": "way",
  "id": 40325185,
  "center": {
    "lat": 50.9842036,
    "lon": 7.0110263
  },
  "tags": {
    "amenity": "place_of_worship",
    "building": "church",
    "denomination": "catholic",
    "name": "Bruder Klaus",
    "religion": "christian",
    "wikidata": "Q62587763",
    "wikipedia": "de:St. Bruder Klaus"
  }
},
{
  "type": "way",
  "id": 42139396,
  "center": {
    "lat": 50.9362591,
    "lon": 6.9606859
  },
  "tags": {
    "heritage": "8",
    "heritage:operator": "Untere Denkmalbehörde",
    "heritage:ref": "60",
    "historic": "monument",
    "image": "http://commons.wikimedia.org/wiki/File:Standbild_Heumarkt_K%C3%B6ln_-_Gesamtansicht.jpg",
    "memorial:type": "statue",
    "name": "Reiterdenkmal Friedrich Wilhelm III.",
    "name:en": "Statue of Frederick William III of Prussia",
    "wikidata": "Q37134",
    "wikimedia_commons": "Category:Reiterstandbild Friedrich Wilhelm III in Köln",
    "wikipedia": "en:Frederick William III of Prussia"
  }
},
{
  "type": "way",
  "id": 42402338,
  "center": {
    "lat": 50.9384169,
    "lon": 6.9592887
  },
  "tags": {
    "building": "yes",
    "building:colour": "lemonchiffon",
    "building:levels": "3",
    "building:material": "stone",
    "height": "24.4",
    "historic": "tower",
    "name": "Rathausturm",
    "wikidata": "Q105733611",
    "wikipedia": "de:Rathaus Köln#Ratsturm"
  }
},
{
  "type": "way",
  "id": 42693266,
  "center": {
    "lat": 50.9219573,
    "lon": 6.9592236
  },
  "tags": {
    "addr:city": "Köln",
    "addr:country": "DE",
    "addr:housenumber": "19",
    "addr:postcode": "50678",
    "addr:street": "Chlodwigplatz",
    "barrier": "city_wall",
    "building": "yes",
    "historic": "city_gate",
    "name": "Severinstorburg",
    "tourism": "attraction",
    "wheelchair": "no",
    "wikidata": "Q1650912",
    "wikimedia_commons": "Category:Severinstorburg",
    "wikipedia": "de:Severinstorburg"
  }
},
{
  "type": "way",
  "id": 45039136,
  "center": {
    "lat": 50.9269528,
    "lon": 6.9526043
  },
  "tags": {
    "addr:city": "Köln",
    "addr:country": "DE",
    "addr:housenumber": "8",
    "addr:postcode": "50676",
    "addr:street": "Vor den Siebenburgen",
    "amenity": "place_of_worship",
    "building": "church",
    "building:architecture": "baroque",
    "building:use": "religious",
    "denomination": "catholic",
    "heritage": "8",
    "heritage:operator": "UntereDenkmalbehörde",
    "heritage:ref": "948",
    "heritage:since": "1982-01-18",
    "name": "St. Maria vom Frieden",
    "old_name": "St. Maria in der Schnurgasse",
    "religion": "christian",
    "start_date": "1692 / 1716",
    "wikidata": "Q2320759",
    "wikipedia": "de:St. Maria vom Frieden (Köln)"
  }
},
{
  "type": "way",
  "id": 48126926,
  "center": {
    "lat": 50.8873723,
    "lon": 6.8846669
  },
  "tags": {
    "waterway": "drain",
    "wikipedia": "de:Kölner Randkanal"
  }
},
{
  "type": "way",
  "id": 49600460,
  "center": {
    "lat": 50.9573513,
    "lon": 6.9008603
  },
  "tags": {
    "amenity": "place_of_worship",
    "building": "chapel",
    "denomination": "roman_catholic",
    "historic": "chapel",
    "name": "Rochuskapelle",
    "religion": "christian",
    "wheelchair": "yes",
    "wikidata": "Q72610751",
    "wikipedia": "de:Rochuskapelle (Köln)"
  }
},
{
  "type": "way",
  "id": 50752511,
  "center": {
    "lat": 50.9405059,
    "lon": 6.9744061
  },
  "tags": {
    "addr:city": "Köln",
    "addr:country": "DE",
    "addr:housenumber": "7",
    "addr:postcode": "50679",
    "addr:street": "Ottoplatz",
    "building": "train_station",
    "image": "http://commons.wikimedia.org/wiki/File:Bahnhofsgebäude_Köln_Messe_Deutz_-_Gesamtansicht_(4416-18).jpg",
    "name": "Bahnhof Deutz/Messe",
    "public_transport": "station",
    "website": "http://www.bahnhof.de/#station/19271",
    "wikidata": "Q151146",
    "wikipedia": "de:Bahnhof Köln Messe/Deutz"
  }
},
{
  "type": "way",
  "id": 50881363,
  "center": {
    "lat": 50.9541109,
    "lon": 6.9028853
  },
  "tags": {
    "addr:city": "Köln",
    "addr:country": "DE",
    "addr:housenumber": "13",
    "addr:postcode": "50825",
    "addr:street": "Helmholtzplatz",
    "amenity": "place_of_worship",
    "building": "church",
    "building:use": "religious",
    "denomination": "catholic",
    "name": "Grabeskirche St. Bartholomäus",
    "religion": "christian",
    "source": "survey",
    "wikidata": "Q22681092",
    "wikipedia": "de:St. Bartholomäus (Köln-Ehrenfeld)"
  }
},
{
  "type": "way",
  "id": 50997849,
  "center": {
    "lat": 50.9364197,
    "lon": 6.9401596
  },
  "tags": {
    "addr:city": "Köln",
    "addr:country": "DE",
    "addr:housenumber": "1",
    "addr:postcode": "50674",
    "addr:street": "Rudolfplatz",
    "barrier": "city_wall",
    "building": "yes",
    "historic": "city_gate",
    "name": "Hahnentorburg",
    "wikidata": "Q153145",
    "wikipedia": "de:Hahnentorburg"
  }
},
{
  "type": "way",
  "id": 51570458,
  "center": {
    "lat": 50.9493118,
    "lon": 6.9568695
  },
  "tags": {
    "barrier": "city_wall",
    "building": "yes",
    "building:levels": "3",
    "historic": "city_gate",
    "layer": "-1",
    "location": "surface",
    "name": "Eigelsteintorburg",
    "name:en": "Eigelstein Gate",
    "source": "photography",
    "tourism": "attraction",
    "website": "http://www.eigelsteintorburg.de/",
    "wikidata": "Q153131",
    "wikipedia": "de:Eigelsteintorburg"
  }
},
{
  "type": "way",
  "id": 58412165,
  "center": {
    "lat": 50.9458048,
    "lon": 6.9370948
  },
  "tags": {
    "amenity": "place_of_worship",
    "building": "church",
    "building:colour": "firered",
    "building:material": "brick",
    "denomination": "catholic",
    "name": "Neu St. Alban",
    "religion": "christian",
    "source": "photography",
    "website": "https://www.stgereon.de/Rundgang_st_alban/Startseite.html",
    "wikidata": "Q1979182",
    "wikipedia": "de:Neu St. Alban"
  }
},
{
  "type": "way",
  "id": 58844461,
  "center": {
    "lat": 50.9470022,
    "lon": 6.9186906
  },
  "tags": {
    "access": "yes",
    "addr:city": "Köln",
    "addr:country": "DE",
    "addr:housenumber": "1",
    "addr:postcode": "50823",
    "addr:street": "Neptunplatz",
    "building": "yes",
    "leisure": "sauna",
    "name": "Neptunbad",
    "opening_hours": "Mo-Su,PH 09:00-24:00 \"Sauna\"; Mo-Fr 07:00+ \"Fitness\"; Sa,Su,PH 09:00+ \"Fitness\"",
    "website": "https://www.neptunbad.de/",
    "wheelchair": "no",
    "wikidata": "Q1550958",
    "wikipedia": "de:Neptunbad (Köln)"
  }
},
{
  "type": "way",
  "id": 60358008,
  "center": {
    "lat": 50.9369506,
    "lon": 6.9632950
  },
  "tags": {
    "building": "yes",
    "building:levels": "1",
    "name": "Pegel Köln",
    "roof:shape": "flat",
    "tourism": "attraction",
    "wheelchair": "limited",
    "wikidata": "Q2067319",
    "wikipedia": "de:Pegel Köln"
  }
},
{
  "type": "way",
  "id": 60996326,
  "center": {
    "lat": 50.9242188,
    "lon": 6.9210348
  },
  "tags": {
    "addr:city": "Köln",
    "addr:country": "DE",
    "addr:housenumber": "18",
    "addr:postcode": "50931",
    "addr:street": "Joseph-Stelzmann-Straße",
    "amenity": "place_of_worship",
    "building": "church",
    "building:use": "religious",
    "denomination": "catholic",
    "name": "Katholische Klinikkirche St. Johannes der Täufer",
    "religion": "christian",
    "wikidata": "Q62587808",
    "wikipedia": "de:St. Johannes der Täufer (Köln)"
  }
},
{
  "type": "way",
  "id": 61403787,
  "center": {
    "lat": 50.9341229,
    "lon": 6.9890048
  },
  "tags": {
    "addr:city": "Köln",
    "addr:housenumber": "2",
    "addr:postcode": "50679",
    "addr:street": "Betzdorfer Straße",
    "amenity": "university",
    "name": "Technische Hochschule Köln (Campus Deutz)",
    "name:en": "Technische Hochschule Köln",
    "toilets:wheelchair": "yes",
    "wheelchair": "yes",
    "wheelchair:description": "Weitere Informationen bzgl. der Barrierefreiheit finden Sie unter folgenden Link: http://www.kombabb-internetportal-nrw.de/plugin.php?menuid=6&template=mv/templates/mv_show_front.html&mv_id=1&extern_meta=x&mv_content_id=4"
  }
},
{
  "type": "way",
  "id": 63110668,
  "center": {
    "lat": 50.9421307,
    "lon": 7.0772107
  },
  "tags": {
    "name": "Flehbach",
    "waterway": "stream",
    "wikipedia": "de:Flehbach"
  }
},
{
  "type": "way",
  "id": 80344005,
  "center": {
    "lat": 50.9645904,
    "lon": 6.9345104
  },
  "tags": {
    "addr:city": "Köln",
    "addr:country": "DE",
    "addr:postcode": "50739",
    "amenity": "place_of_worship",
    "building": "church",
    "deanery": "Evangelischer Kirchenkreis Köln-Nord",
    "denomination": "protestant",
    "diocese": "Evangelische Kirche im Rheinland",
    "name": "Nathanaelkirche",
    "parish": "Evangelische Nathanael-Gemeinde Köln-Bilderstöckchen",
    "religion": "christian",
    "service_times": "Su 9:30",
    "source": "survey",
    "start_date": "1965",
    "website": "https://nathanael.kirchekoeln.de/",
    "wikidata": "Q1966696",
    "wikipedia": "de:Nathanaelkirche (Bilderstöckchen)"
  }
},
{
  "type": "way",
  "id": 83015625,
  "center": {
    "lat": 51.3409227,
    "lon": 6.6092759
  },
  "tags": {
    "CEMT": "VIc",
    "boat": "yes",
    "fishing": "stocked",
    "intermittent": "no",
    "name": "Rhein",
    "name:de": "Rhein",
    "name:en": "Rhine",
    "name:es": "Rin",
    "name:fr": "Le Rhin",
    "name:hu": "Rajna",
    "name:it": "Reno",
    "name:ja": "ライン川",
    "name:nl": "Rijn",
    "name:pl": "Ren",
    "name:ru": "Рейн",
    "name:sk": "Rýn",
    "name:uk": "Рейн",
    "waterway": "river",
    "width": "303",
    "wikidata": "Q584",
    "wikipedia": "de:Rhein"
  }
},
{
  "type": "way",
  "id": 87975586,
  "center": {
    "lat": 50.9346891,
    "lon": 7.0605309
  },
  "tags": {
    "amenity": "place_of_worship",
    "building": "church",
    "building:levels": "1",
    "denomination": "roman_catholic",
    "name": "St. Adelheid",
    "religion": "christian",
    "wheelchair": "limited",
    "wikidata": "Q15407196",
    "wikipedia": "de:St. Adelheid (Köln-Neubrück)"
  }
},
{
  "type": "way",
  "id": 88922220,
  "center": {
    "lat": 50.9470982,
    "lon": 6.8716010
  },
  "tags": {
    "addr:city": "Köln",
    "addr:country": "DE",
    "addr:housenumber": "147",
    "addr:postcode": "50933",
    "addr:street": "Belvederestraße",
    "building": "train_station",
    "building:levels": "2",
    "name": "Haus Belvedere",
    "old_name": "Bahnhof Belvedere",
    "roof:shape": "hipped",
    "wikidata": "Q800457",
    "wikipedia": "de:Bahnhof Belvedere"
  }
},
{
  "type": "way",
  "id": 89246916,
  "center": {
    "lat": 50.9486601,
    "lon": 7.0517106
  },
  "tags": {
    "addr:city": "Köln",
    "addr:country": "DE",
    "addr:housenumber": "2",
    "addr:postcode": "51109",
    "addr:street": "Von-Eltz-Platz",
    "amenity": "place_of_worship",
    "building": "church",
    "building:use": "religious",
    "denomination": "catholic",
    "name": "St. Gereon",
    "religion": "christian",
    "wikidata": "Q15526100",
    "wikipedia": "de:St. Gereon (Köln-Merheim)"
  }
},
{
  "type": "way",
  "id": 108095296,
  "center": {
    "lat": 50.9235047,
    "lon": 6.9122771
  },
  "tags": {
    "addr:city": "Köln",
    "addr:country": "DE",
    "addr:housenumber": "106",
    "addr:postcode": "50931",
    "addr:street": "Gleueler Straße",
    "amenity": "place_of_worship",
    "building": "church",
    "building:use": "religious",
    "deanery": "Evangelischer Kirchenkreis Köln-Mitte",
    "denomination": "protestant",
    "diocese": "Evangelische Kirche im Rheinland",
    "height": "0",
    "loc_name": "Rote Kirche",
    "name": "Paul-Gerhardt-Kirche",
    "parish": "Evangelische Kirchengemeinde Köln-Lindenthal",
    "religion": "christian",
    "service_times": "Su 10:00",
    "website": "http://www.kirche-lindenthal.de/",
    "wikidata": "Q15124492",
    "wikipedia": "de:Paul-Gerhardt-Kirche (Köln)"
  }
},
{
  "type": "way",
  "id": 117743037,
  "center": {
    "lat": 50.9347100,
    "lon": 7.0231957
  },
  "tags": {
    "amenity": "place_of_worship",
    "architect": "Paul Böhm",
    "building": "church",
    "building:levels": "1",
    "denomination": "catholic",
    "name": "St. Theodor",
    "religion": "christian",
    "wheelchair": "yes",
    "wikidata": "Q2323336",
    "wikipedia": "de:St. Theodor",
    "year_of_construction": "2002"
  }
},
{
  "type": "way",
  "id": 119555025,
  "center": {
    "lat": 50.9352278,
    "lon": 6.9165296
  },
  "tags": {
    "addr:city": "Köln",
    "addr:country": "DE",
    "addr:housenumber": "16",
    "addr:postcode": "50931",
    "addr:street": "Brucknerstraße",
    "amenity": "place_of_worship",
    "architect": "Gottfried Böhn",
    "building": "church",
    "building:use": "religious",
    "denomination": "catholic",
    "name": "Christi Auferstehung",
    "operator": "Mo off; Tu-Su 10:00-17:00",
    "religion": "christian",
    "website": "https://www.kirche-im-leben.de/unsere-kirchengemeinde/kirchen/",
    "wikidata": "Q1078598",
    "wikipedia": "de:Christi Auferstehung (Lindenthal)"
  }
},
{
  "type": "way",
  "id": 122628380,
  "center": {
    "lat": 50.9409326,
    "lon": 6.9466241
  },
  "tags": {
    "barrier": "city_wall",
    "building": "yes",
    "historic": "ruins",
    "historic:civilization": "roman",
    "material": "brick",
    "name": "Römerturm",
    "name:en": "Roman Tower",
    "source": "photography",
    "tourism": "attraction",
    "wikidata": "Q2179667",
    "wikipedia": "de:Römerturm (Köln)"
  }
},
{
  "type": "way",
  "id": 124808882,
  "center": {
    "lat": 50.9196590,
    "lon": 6.8613960
  },
  "tags": {
    "name": "Frechener Bach",
    "source": "Bing;Aeroview",
    "waterway": "stream",
    "wikipedia": "de:Frechener Bach"
  }
},
{
  "type": "way",
  "id": 127071380,
  "center": {
    "lat": 50.9217997,
    "lon": 6.9680156
  },
  "tags": {
    "addr:city": "Köln",
    "addr:country": "DE",
    "addr:housenumber": "4",
    "addr:postcode": "50678",
    "addr:street": "Agrippinawerft",
    "amenity": "college",
    "building": "yes",
    "building:use": "education",
    "name": "FOM Hochschule für Oekonomie & Management",
    "wheelchair": "limited",
    "wikipedia": "de:FOM Hochschule für Oekonomie & Management"
  }
},
{
  "type": "way",
  "id": 131886625,
  "center": {
    "lat": 50.9380210,
    "lon": 6.9525193
  },
  "tags": {
    "amenity": "fountain",
    "heritage": "8",
    "heritage:operator": "UntereDenkmalbehörde",
    "heritage:ref": "8355",
    "historic": "heritage",
    "image": "https://commons.wikimedia.org/wiki/File:Opernbrunnen_K%C3%B6ln_-_Font%C3%A4ne_%284025-27%29.jpg",
    "name": "Opernbrunnen",
    "natural": "water",
    "source": "photography",
    "wikidata": "Q2026645",
    "wikipedia": "de:Opernbrunnen (Köln)"
  }
},
{
  "type": "way",
  "id": 132131876,
  "center": {
    "lat": 50.9164474,
    "lon": 6.8516924
  },
  "tags": {
    "name": "Frechener Bach",
    "waterway": "stream",
    "wikipedia": "de:Frechener Bach"
  }
},
{
  "type": "way",
  "id": 132131881,
  "center": {
    "lat": 50.9211398,
    "lon": 6.8746114
  },
  "tags": {
    "name": "Frechener Bach",
    "waterway": "stream",
    "wikipedia": "de:Frechener Bach"
  }
},
{
  "type": "way",
  "id": 132131887,
  "center": {
    "lat": 50.9191412,
    "lon": 6.8596690
  },
  "tags": {
    "layer": "-1",
    "name": "Frechener Bach",
    "tunnel": "yes",
    "waterway": "drain",
    "wikipedia": "de:Frechener Bach"
  }
},
{
  "type": "way",
  "id": 132131888,
  "center": {
    "lat": 50.9198019,
    "lon": 6.8621851
  },
  "tags": {
    "layer": "-1",
    "name": "Frechener Bach",
    "source": "Bing;Aeroview",
    "tunnel": "yes",
    "waterway": "drain",
    "wikipedia": "de:Frechener Bach"
  }
},
{
  "type": "way",
  "id": 132405287,
  "center": {
    "lat": 50.9355008,
    "lon": 6.9736611
  },
  "tags": {
    "addr:city": "Köln",
    "addr:country": "DE",
    "addr:housenumber": "31",
    "addr:postcode": "50679",
    "addr:street": "Tempelstraße",
    "amenity": "place_of_worship",
    "building": "church",
    "building:use": "religious",
    "deanery": "Evangelischer Kirchenkreis Köln-Mitte",
    "denomination": "protestant",
    "diocese": "Evangelische Kirche im Rheinland",
    "name": "Sankt Johannes Deutz",
    "parish": "Evangelische Kirchengemeinde Köln-Deutz/Poll",
    "religion": "christian",
    "service_times": "Su 11:00",
    "tourism": "attraction",
    "website": "http://evangelisch-deutzpoll.de/",
    "wikidata": "Q1409316",
    "wikipedia": "de:St.-Johannes-Kirche (Deutz)"
  }
},
{
  "type": "way",
  "id": 136532344,
  "center": {
    "lat": 50.9607940,
    "lon": 6.9648019
  },
  "tags": {
    "amenity": "place_of_worship",
    "building": "church",
    "building:levels": "2",
    "denomination": "roman_catholic",
    "name": "St. Hildegard in der Au",
    "religion": "christian",
    "roof:shape": "flat",
    "source": "NRW-Atlas: Automatisierte Liegenschaftskarte (Vektor)",
    "wikidata": "Q62587802",
    "wikipedia": "de:St. Hildegard in der Au"
  }
},
{
  "type": "way",
  "id": 138509979,
  "center": {
    "lat": 50.9216172,
    "lon": 7.0044986
  },
  "tags": {
    "FMT_name": "Köln 25",
    "FMT_ref": "15",
    "building": "yes",
    "communication:microwave": "yes",
    "communication:mobile_phone": "yes",
    "communication:radio": "yes",
    "ele": "47",
    "height": "115",
    "man_made": "tower",
    "name": "Pollonius",
    "operator": "Deutsche Telekom AG / Deutsche Funkturm",
    "start_date": "1990",
    "tower:platforms": "3",
    "tower:type": "communication",
    "wikidata": "Q2102160",
    "wikipedia": "de:Pollonius"
  }
},
{
  "type": "way",
  "id": 141252950,
  "center": {
    "lat": 50.9485143,
    "lon": 7.0080870
  },
  "tags": {
    "addr:city": "Köln",
    "addr:country": "DE",
    "addr:housenumber": "32",
    "addr:postcode": "51065",
    "addr:street": "Kopernikusstraße",
    "addr:suburb": "Buchforst",
    "alt_name": "Kulturkirche Ost",
    "amenity": "place_of_worship",
    "architect": "Georg Rasch; Winfried Wolsky",
    "building": "church",
    "deanery": "Evangelischer Kirchenkreis Köln-Rechtsrheinisch",
    "denomination": "protestant",
    "diocese": "Evangelische Kirche im Rheinland",
    "heritage": "8",
    "heritage:operator": "Amt für Denkmalschutz und Denkmalpflege Köln",
    "heritage:operator:short": "Denkmalamt Köln",
    "heritage:ref": "6632",
    "heritage:since": "1992-10-02",
    "name": "Auferstehungskirche Buchforst",
    "note": "seit 2012 wieder Gottesdienstraum",
    "operator": "GAG Immobilien",
    "parish": "Evangelische Kirchengemeinde Köln-Buchforst-Buchheim",
    "religion": "christian",
    "service_times": "Su[1,3] 9:30; Su[2] 18:00",
    "start_date": "1968",
    "toilets:wheelchair": "yes",
    "website": "https://www.ekibubu.de/",
    "wheelchair": "yes",
    "wikidata": "Q759624",
    "wikimedia_commons": "Auferstehungskirche (Köln-Buchforst)",
    "wikipedia": "de:Auferstehungskirche (Köln-Buchforst)",
    "year_of_construction": "1968"
  }
},
{
  "type": "way",
  "id": 146368189,
  "center": {
    "lat": 50.8982529,
    "lon": 6.8979099
  },
  "tags": {
    "addr:city": "Hürth",
    "addr:country": "DE",
    "addr:housenumber": "12",
    "addr:postcode": "50354",
    "addr:street": "Martin-Luther-Straße",
    "amenity": "place_of_worship",
    "building": "church",
    "deanery": "Evangelischer Kirchenkreis Köln-Süd",
    "denomination": "protestant",
    "diocese": "Evangelische Kirche im Rheinland",
    "name": "Friedenskirche",
    "parish": "Evangelische Kirchengemeinde Hürth",
    "religion": "christian",
    "service_times": "Su 9:45",
    "start_date": "1953",
    "website": "https://www.evangelisch-in-huerth.de/",
    "wheelchair": "yes",
    "wikidata": "Q1295361",
    "wikipedia": "de:Friedenskirche (Hürth)"
  }
},
{
  "type": "way",
  "id": 146484208,
  "center": {
    "lat": 51.0257660,
    "lon": 6.9963500
  },
  "tags": {
    "addr:city": "Leverkusen",
    "addr:housenumber": "6",
    "addr:postcode": "51373",
    "addr:street": "Theodor-Storm-Straße",
    "amenity": "place_of_worship",
    "building": "church",
    "contact:facebook": "https://de-de.facebook.com/AssemblyOfRedeemerKing/",
    "denomination": "protestant",
    "disused:deanery": "Evangelischer Kirchenkreis Leverkusen",
    "disused:denomination": "protestant",
    "disused:diocese": "Evangelische Kirche im Rheinland",
    "disused:parish": "Evangelische Kirchengemeinde Leverkusen-Wiesdorf",
    "disused:website": "http://www.kirche-wiesdorf.de/",
    "end_date": "2004",
    "old_name": "Markuskirche",
    "operator": "Assembly Of Redeemer King",
    "religion": "christian",
    "start_date": "1962",
    "wikidata": "Q1901926",
    "wikipedia": "de:Markuskirche (Wiesdorf)"
  }
},
{
  "type": "way",
  "id": 151467218,
  "center": {
    "lat": 50.9457294,
    "lon": 6.9282995
  },
  "tags": {
    "addr:city": "Köln",
    "addr:country": "DE",
    "addr:housenumber": "160",
    "addr:postcode": "50823",
    "addr:street": "Venloer Straße",
    "amenity": "place_of_worship",
    "architect": "Gottfried Böhm; Paul Böhm",
    "building": "mosque",
    "building:material": "exposed_concrete",
    "denomination": "sunni",
    "name": "DITIB-Zentralmoschee",
    "name:tr": "DİTİB Merkez Camii",
    "operator": "Türkisch-Islamische Union der Anstalt für Religion e.V. (DITIB)",
    "organisation": "DITIB",
    "religion": "muslim",
    "source": "photography",
    "toilets:wheelchair": "yes",
    "website": "http://www.zentralmoschee-koeln.de/",
    "wheelchair": "yes",
    "wikidata": "Q836059",
    "wikipedia": "de:DITIB-Zentralmoschee Köln"
  }
},
{
  "type": "way",
  "id": 154714911,
  "center": {
    "lat": 50.9342733,
    "lon": 6.9142386
  },
  "tags": {
    "amenity": "place_of_worship",
    "building": "church",
    "denomination": "syriac_orthodox",
    "name": "Mor Petrus u. Mor Paulus - Syrisch-Orthodoxe Kirche",
    "name:tr": "Mor Petrus ve Pavlus Süryani Kadim Kilisesi",
    "religion": "christian",
    "wheelchair": "limited",
    "wikidata": "Q91781442",
    "wikipedia": "de:St. Petrus und Paulus (Köln)"
  }
},
{
  "type": "way",
  "id": 155328236,
  "center": {
    "lat": 50.9611264,
    "lon": 6.9701018
  },
  "tags": {
    "alt_name": "Botanischer Garten",
    "bicycle": "no",
    "dogs": "no",
    "fee": "no",
    "historic": "yes",
    "leisure": "park",
    "name": "Flora",
    "opening_hours": "08:00-sunset; may-sep 21:00-08:00 off",
    "picnic": "no",
    "picnic:allowed": "Dank Augusta",
    "website": "http://www.stadt-koeln.de/6/gruen/flora/index.html",
    "wheelchair": "limited",
    "wheelchair:description": "Behinderten Toilette im Flora Gebäude; Tür 87cm",
    "wikipedia": "de:Flora (Köln)"
  }
},
{
  "type": "way",
  "id": 156198254,
  "center": {
    "lat": 50.9000157,
    "lon": 6.8466325
  },
  "tags": {
    "name": "Gleueler Bach",
    "waterway": "stream",
    "wikipedia": "de:Gleueler Bach"
  }
},
{
  "type": "way",
  "id": 156266972,
  "center": {
    "lat": 50.9089268,
    "lon": 6.9182663
  },
  "tags": {
    "addr:city": "Köln",
    "addr:country": "DE",
    "addr:housenumber": "78",
    "addr:postcode": "50937",
    "addr:street": "Nonnenwerthstraße",
    "amenity": "place_of_worship",
    "building": "church",
    "building:colour": "firebrick",
    "building:levels": "2",
    "building:material": "brick",
    "deanery": "Evangelischer Kirchenkreis Köln-Mitte",
    "denomination": "protestant",
    "description:de": "Johanneskirche Köln-Klettenberg",
    "diocese": "Evangelische Kirche im Rheinland",
    "name": "Johanneskirche",
    "parish": "Evangelische Kirchengemeinde Köln-Klettenberg",
    "religion": "christian",
    "roof:shape": "gabled",
    "service_times": "Su 11:00",
    "website": "https://www.kirche-klettenberg.de/",
    "wheelchair": "yes",
    "wikidata": "Q1698859",
    "wikipedia": "de:Johanneskirche (Köln-Sülz)"
  }
},
{
  "type": "way",
  "id": 156318235,
  "center": {
    "lat": 50.9074303,
    "lon": 6.8617647
  },
  "tags": {
    "covered": "yes",
    "layer": "-1",
    "name": "Gleueler Bach",
    "waterway": "stream",
    "wikipedia": "de:Gleueler Bach"
  }
},
{
  "type": "way",
  "id": 156977553,
  "center": {
    "lat": 50.9695872,
    "lon": 7.0600527
  },
  "tags": {
    "name": "Strunde",
    "source": "survey",
    "waterway": "stream",
    "wikipedia": "de:Strunde"
  }
},
{
  "type": "way",
  "id": 157707427,
  "center": {
    "lat": 50.9128012,
    "lon": 6.8393054
  },
  "tags": {
    "name": "Frechener Bach",
    "waterway": "stream",
    "wikipedia": "de:Frechener Bach"
  }
},
{
  "type": "way",
  "id": 157765069,
  "center": {
    "lat": 50.9150231,
    "lon": 6.8451857
  },
  "tags": {
    "covered": "yes",
    "layer": "-1",
    "name": "Frechener Bach",
    "tunnel": "culvert",
    "waterway": "stream",
    "wikipedia": "de:Frechener Bach"
  }
},
{
  "type": "way",
  "id": 157767958,
  "center": {
    "lat": 50.9018117,
    "lon": 6.8505671
  },
  "tags": {
    "layer": "-1",
    "name": "Gleueler Bach",
    "tunnel": "yes",
    "waterway": "stream",
    "wikipedia": "de:Gleueler Bach"
  }
},
{
  "type": "way",
  "id": 157767959,
  "center": {
    "lat": 50.9048496,
    "lon": 6.8560947
  },
  "tags": {
    "name": "Gleueler Bach",
    "waterway": "stream",
    "wikipedia": "de:Gleueler Bach"
  }
},
{
  "type": "way",
  "id": 159227044,
  "center": {
    "lat": 50.9399917,
    "lon": 6.9464488
  },
  "tags": {
    "building": "yes",
    "historic": "ruins",
    "name": "Helenenturm",
    "ruins": "yes",
    "source": "photography",
    "wikidata": "Q99528580",
    "wikipedia": "de:Römerturm (Köln)#Weitere Reste von römischen Türmen"
  }
},
{
  "type": "way",
  "id": 161333496,
  "center": {
    "lat": 50.9630031,
    "lon": 6.8204246
  },
  "tags": {
    "name": "Kölner Randkanal",
    "source": "survey",
    "waterway": "drain",
    "width": "5",
    "wikidata": "Q1553893",
    "wikipedia": "de:Kölner Randkanal"
  }
},
{
  "type": "way",
  "id": 161447523,
  "center": {
    "lat": 50.9534706,
    "lon": 6.8271437
  },
  "tags": {
    "name": "Südlicher Randkanal",
    "waterway": "drain",
    "wikipedia": "de:Kölner Randkanal"
  }
},
{
  "type": "way",
  "id": 161480085,
  "center": {
    "lat": 50.9753163,
    "lon": 7.0620447
  },
  "tags": {
    "addr:city": "Köln",
    "addr:country": "DE",
    "addr:housenumber": "848",
    "addr:postcode": "51069",
    "addr:street": "Bergisch Gladbacher Straße",
    "amenity": "place_of_worship",
    "architect": "Otto March",
    "architect:wikidata": "Q96239",
    "architect:wikipedia": "de:Otto March",
    "building": "church",
    "building:use": "religious",
    "deanery": "Evangelischer Kirchenkreis Köln-Rechtsrheinisch",
    "denomination": "protestant",
    "diocese": "Evangelische Kirche im Rheinland",
    "heritage": "8",
    "heritage:operator": "Amt für Denkmalschutz und Denkmalpflege Köln",
    "heritage:operator:short": "Denkmalamt Köln",
    "heritage:ref": "909",
    "heritage:since": "1982-01-18",
    "name": "Christuskirche Dellbrück",
    "parish": "Evangelische Kirchengemeinde Köln-Dellbrück/Holweide",
    "religion": "christian",
    "service_times": "Su 9:30",
    "source:outline": "ALKIS NRW",
    "start_date": "1905",
    "website": "http://www.dellbrueck-holweide.kirche-koeln.de/",
    "wheelchair": "limited",
    "wikidata": "Q21031953",
    "wikimedia_commons": "Category:Christ_Church (Köln-Dellbrück)",
    "wikipedia": "de:Christuskirche (Köln-Dellbrück)"
  }
},
{
  "type": "way",
  "id": 161720374,
  "center": {
    "lat": 50.9333896,
    "lon": 6.9607359
  },
  "tags": {
    "addr:city": "Köln",
    "addr:country": "DE",
    "addr:housenumber": "6",
    "addr:postcode": "50676",
    "addr:street": "Filzengraben",
    "amenity": "place_of_worship",
    "building": "church",
    "building:use": "religious",
    "deanery": "Evangelischer Kirchenkreis Köln-Mitte",
    "denomination": "protestant",
    "diocese": "Evangelische Kirche im Rheinland",
    "name": "Trinitatiskirche",
    "parish": "Evangelischer Kirchenkreis Köln-Mitte",
    "religion": "christian",
    "source": "survey",
    "website": "https://trinitatiskirche-koeln.de/",
    "wheelchair": "no",
    "wikidata": "Q2453496",
    "wikipedia": "de:Trinitatiskirche (Köln)"
  }
},
{
  "type": "way",
  "id": 163593043,
  "center": {
    "lat": 50.9220598,
    "lon": 6.9306553
  },
  "tags": {
    "addr:city": "Köln",
    "addr:country": "DE",
    "addr:housenumber": "119",
    "addr:postcode": "50937",
    "addr:street": "Berrenrather Straße",
    "amenity": "place_of_worship",
    "architect": "Josef Rikus",
    "architect:wikidata": "Q1705563",
    "building": "church",
    "building:architecture": "brutalist",
    "building:use": "religious",
    "denomination": "catholic",
    "diocese": "Erzbistum Köln",
    "name": "Kirche Johannes XXIII.",
    "religion": "christian",
    "source": "HiRes aerial imagery",
    "start_date": "1969",
    "toilets:wheelchair": "no",
    "wheelchair": "yes",
    "wikidata": "Q16743912",
    "wikipedia": "de:Kirche der katholischen Hochschulgemeinde Köln – St. Johannes XXIII."
  }
},
{
  "type": "way",
  "id": 164840304,
  "center": {
    "lat": 50.9184861,
    "lon": 6.8573841
  },
  "tags": {
    "layer": "-1",
    "name": "Frechener Bach",
    "tunnel": "yes",
    "waterway": "stream",
    "wikipedia": "de:Frechener Bach"
  }
},
{
  "type": "way",
  "id": 164840305,
  "center": {
    "lat": 50.9186038,
    "lon": 6.8579184
  },
  "tags": {
    "layer": "-1",
    "name": "Frechener Bach",
    "tunnel": "yes",
    "waterway": "drain",
    "wikipedia": "de:Frechener Bach"
  }
},
{
  "type": "way",
  "id": 166717314,
  "center": {
    "lat": 50.9493291,
    "lon": 7.0559584
  },
  "tags": {
    "layer": "-1",
    "name": "Flehbach",
    "source": "aerowest",
    "tunnel": "yes",
    "waterway": "stream",
    "wikipedia": "de:Flehbach"
  }
},
{
  "type": "way",
  "id": 166717315,
  "center": {
    "lat": 50.9504355,
    "lon": 7.0537427
  },
  "tags": {
    "name": "Flehbach",
    "source": "aerowest",
    "waterway": "stream",
    "wikipedia": "de:Flehbach"
  }
},
{
  "type": "way",
  "id": 168321343,
  "center": {
    "lat": 50.9800309,
    "lon": 6.9976047
  },
  "tags": {
    "building": "yes",
    "height": "28",
    "historic": "yes",
    "man_made": "water_tower",
    "name": "Alter Wasserturm",
    "wikidata": "Q105343829",
    "wikipedia": "de:Wasserturm (Köln-Stammheim)"
  }
},
{
  "type": "way",
  "id": 175796914,
  "center": {
    "lat": 50.9200094,
    "lon": 6.9066708
  },
  "tags": {
    "addr:city": "Köln",
    "addr:country": "DE",
    "addr:housenumber": "3",
    "addr:postcode": "50935",
    "addr:street": "Suitbert-Heimbach-Platz",
    "amenity": "place_of_worship",
    "building": "church",
    "building:use": "religious",
    "denomination": "roman_catholic",
    "name": "Sankt Albertus Magnus",
    "religion": "christian",
    "wikidata": "Q62587752",
    "wikipedia": "de:St. Albertus Magnus (Köln)"
  }
},
{
  "type": "way",
  "id": 188417345,
  "center": {
    "lat": 50.9972910,
    "lon": 6.9064904
  },
  "tags": {
    "addr:city": "Köln",
    "addr:country": "DE",
    "addr:housenumber": "62",
    "addr:postcode": "50739",
    "addr:street": "Longericher Hauptstraße",
    "amenity": "place_of_worship",
    "architect": "Vincenz Statz",
    "building": "church",
    "denomination": "roman_catholic",
    "heritage": "8",
    "heritage:operator": "UntereDenkmalbehörde",
    "heritage:ref": "921",
    "historic": "heritage",
    "image": "http://commons.wikimedia.org/wiki/File:St._Dionysius_K%C3%B6ln-Longerich-3449.jpg",
    "name": "St. Dionysius",
    "religion": "christian",
    "source": "survey",
    "website": "http://www.sankt-dionysius-koeln.de/",
    "wikidata": "Q62587772",
    "wikipedia": "de:St. Dionysius (Köln)"
  }
},
{
  "type": "way",
  "id": 195444239,
  "center": {
    "lat": 50.9960392,
    "lon": 6.9823306
  },
  "tags": {
    "addr:city": "Köln",
    "addr:country": "DE",
    "addr:housename": "Optischer Telegraf Nr.50",
    "addr:housenumber": "152",
    "addr:postcode": "51061",
    "addr:street": "Egonstraße",
    "alt_name": "Signalturm",
    "building": "house",
    "building:use": "residential",
    "description": "Station 50 der preußischen optischen Telegraphenlinie Berlin-Koblenz",
    "historic": "optical_telegraph",
    "image": "http://commons.wikimedia.org/wiki/File:Telegraf-flittard.jpg",
    "name": "Optischer Telegraph",
    "network": "Preußischer_optischer_Telegraf",
    "optical_telegraph": "Station_50",
    "tourism": "attraction",
    "wheelchair": "no",
    "wikipedia": "de:Preußischer optischer Telegraf"
  }
},
{
  "type": "way",
  "id": 198142492,
  "center": {
    "lat": 50.9616234,
    "lon": 6.9490205
  },
  "tags": {
    "addr:city": "Köln",
    "addr:country": "DE",
    "addr:housenumber": "85",
    "addr:postcode": "50733",
    "addr:street": "Siebachstraße",
    "amenity": "place_of_worship",
    "building": "church",
    "building:use": "religious",
    "deanery": "Evangelischer Kirchenkreis Köln-Mitte",
    "denomination": "protestant",
    "diocese": "Evangelische Kirche im Rheinland",
    "name": "Lutherkirche Nippes",
    "parish": "Evangelische Kirchengemeinde Köln-Nippes",
    "religion": "christian",
    "service_times": "Su 11:00",
    "website": "http://www.lutherkirche-nippes.de",
    "wikidata": "Q62588356",
    "wikipedia": "de:Lutherkirche (Köln-Nippes)"
  }
},
{
  "type": "way",
  "id": 198726470,
  "center": {
    "lat": 50.9714751,
    "lon": 6.9292485
  },
  "tags": {
    "addr:city": "Köln",
    "addr:country": "DE",
    "addr:postcode": "50739",
    "addr:street": "An St. Franziskus",
    "amenity": "place_of_worship",
    "building": "church",
    "denomination": "catholic",
    "name": "Sankt Franziskus",
    "religion": "christian",
    "wheelchair": "yes",
    "wikidata": "Q62587784",
    "wikipedia": "de:St. Franziskus (Köln)"
  }
},
{
  "type": "way",
  "id": 200954779,
  "center": {
    "lat": 51.0004677,
    "lon": 6.9162239
  },
  "tags": {
    "amenity": "place_of_worship",
    "building": "church",
    "denomination": "catholic",
    "heritage": "8",
    "heritage:operator": "UntereDenkmalbehörde",
    "heritage:ref": "8624",
    "historic": "heritage",
    "name": "Christopherus-Kapelle",
    "religion": "christian",
    "wikidata": "Q105130363",
    "wikipedia": "de:Christophorus-Kapelle (Longerich)"
  }
},
{
  "type": "way",
  "id": 202117250,
  "center": {
    "lat": 50.9478074,
    "lon": 6.9610972
  },
  "tags": {
    "addr:city": "Köln",
    "addr:country": "DE",
    "addr:housenumber": "87",
    "addr:postcode": "50668",
    "addr:street": "Unter Krahnenbäumen",
    "amenity": "college",
    "building": "yes",
    "building:levels": "3",
    "name": "Hochschule für Musik und Tanz Köln",
    "roof:shape": "flat",
    "website": "https://www.hfmt-koeln.de/",
    "wheelchair": "yes",
    "wheelchair:description": "Weitere Informationen bzgl. der Barrierefreiheit finden Sie unter folgenden Link: http://www.kombabb-internetportal-nrw.de/plugin.php?menuid=6&template=mv/templates/mv_show_front.html&mv_id=1&extern_meta=x&mv_content_id=72",
    "wikidata": "Q55021",
    "wikipedia": "de:Hochschule für Musik und Tanz Köln"
  }
},
{
  "type": "way",
  "id": 202844056,
  "center": {
    "lat": 50.9227124,
    "lon": 6.9514024
  },
  "tags": {
    "addr:city": "Köln",
    "addr:country": "DE",
    "addr:housenumber": "49",
    "addr:postcode": "50677",
    "addr:street": "Lothringer Straße",
    "amenity": "place_of_worship",
    "architect": "Stephan Mattar",
    "architect:wikidata": "Q15431760",
    "building": "church",
    "building:use": "religious",
    "denomination": "catholic",
    "diocese": "Erzbistum Köln",
    "heritage": "8",
    "heritage:operator": "Untere Denkmalbehörde",
    "heritage:ref": "1000",
    "historic": "heritage",
    "image": "https://commons.wikimedia.org/wiki/File:St._Paul,_K%C3%B6ln-7111.jpg",
    "name": "St. Paul",
    "religion": "christian",
    "source": "survey",
    "wikidata": "Q1259172",
    "wikipedia": "de:St. Paul (Köln)"
  }
},
{
  "type": "way",
  "id": 204044533,
  "center": {
    "lat": 50.9180344,
    "lon": 6.8574264
  },
  "tags": {
    "layer": "-1",
    "name": "Frechener Bach",
    "tunnel": "yes",
    "waterway": "stream",
    "wikipedia": "de:Frechener Bach"
  }
},
{
  "type": "way",
  "id": 206455270,
  "center": {
    "lat": 50.9363108,
    "lon": 7.0998729
  },
  "tags": {
    "name": "Flehbach",
    "waterway": "stream",
    "wikipedia": "de:Flehbach"
  }
},
{
  "type": "way",
  "id": 212400150,
  "center": {
    "lat": 50.9345621,
    "lon": 6.8302944
  },
  "tags": {
    "amenity": "place_of_worship",
    "building": "chapel",
    "name": "St. Stephanus",
    "religion": "christian",
    "wikidata": "Q92035402",
    "wikipedia": "de:Kapelle St. Stephanus (Köln)"
  }
},
{
  "type": "way",
  "id": 212772545,
  "center": {
    "lat": 50.9727601,
    "lon": 7.0894439
  },
  "tags": {
    "name": "Strunde",
    "source": "survey",
    "waterway": "stream",
    "wikipedia": "de:Strunde"
  }
},
{
  "type": "way",
  "id": 216635198,
  "center": {
    "lat": 50.8603112,
    "lon": 6.9567576
  },
  "tags": {
    "addr:city": "Köln",
    "addr:country": "DE",
    "addr:housenumber": "8",
    "addr:postcode": "50997",
    "addr:street": "Am Moosberg",
    "amenity": "place_of_worship",
    "building": "yes",
    "denomination": "roman_catholic",
    "name": "St. Servatius",
    "religion": "christian",
    "wikidata": "Q55474097",
    "wikipedia": "de:St. Servatius (Köln-Immendorf)"
  }
},
{
  "type": "way",
  "id": 218771692,
  "center": {
    "lat": 50.9321597,
    "lon": 6.9365972
  },
  "tags": {
    "addr:city": "Köln",
    "addr:housenumber": "50",
    "addr:postcode": "50674",
    "addr:street": "Roonstraße",
    "amenity": "place_of_worship",
    "building": "church",
    "name": "Synagoge Köln",
    "operator": "Synagogen-Gemeinde Köln",
    "phone": "+49-221-921560-20",
    "religion": "jewish",
    "website": "https://www.sgk.de/",
    "wikidata": "Q544285",
    "wikipedia": "de:Synagoge Köln"
  }
},
{
  "type": "way",
  "id": 221021510,
  "center": {
    "lat": 50.9289732,
    "lon": 6.9578780
  },
  "tags": {
    "addr:city": "Köln",
    "addr:country": "DE",
    "addr:housenumber": "2",
    "addr:postcode": "50678",
    "addr:street": "Spielmannsgasse",
    "amenity": "place_of_worship",
    "building": "church",
    "building:use": "religious",
    "denomination": "catholic",
    "name": "St. Johann Baptist",
    "religion": "christian",
    "wikidata": "Q974399",
    "wikipedia": "de:St. Johann Baptist (Köln)"
  }
},
{
  "type": "way",
  "id": 225109571,
  "center": {
    "lat": 50.9192909,
    "lon": 6.9590831
  },
  "tags": {
    "addr:city": "Köln",
    "addr:country": "DE",
    "addr:housenumber": "10",
    "addr:postcode": "50677",
    "addr:street": "Zugweg",
    "amenity": "theatre",
    "building": "apartments",
    "building:levels": "4",
    "building:use": "public;residential",
    "name": "Freies Werkstatt Theater",
    "roof:levels": "1",
    "roof:shape": "gambrel",
    "toilets:wheelchair": "yes",
    "website": "http://www.fwt-koeln.de",
    "wheelchair": "yes",
    "wikipedia": "de:Freies Werkstatt Theater Köln"
  }
},
{
  "type": "way",
  "id": 229326409,
  "center": {
    "lat": 50.8969482,
    "lon": 7.0160706
  },
  "tags": {
    "amenity": "place_of_worship",
    "building": "chapel",
    "building:colour": "white",
    "building:levels": "1",
    "denomination": "roman_catholic",
    "height": "6.7",
    "name": "Nikolaus-Kapelle",
    "religion": "christian",
    "roof:colour": "black",
    "roof:height": "3",
    "roof:material": "slate",
    "roof:shape": "gabled",
    "wikidata": "Q1761618",
    "wikipedia": "de:Nikolaus-Kapelle (Köln)"
  }
},
{
  "type": "way",
  "id": 232526481,
  "center": {
    "lat": 50.8816189,
    "lon": 6.8746732
  },
  "tags": {
    "addr:city": "Hürth",
    "addr:country": "DE",
    "addr:housenumber": "40",
    "addr:postcode": "50354",
    "addr:street": "Villering",
    "amenity": "place_of_worship",
    "building": "church",
    "denomination": "roman_catholic",
    "name": "Sankt Josef Kirche",
    "parish": "Zu den Heiligen Severin, Joseph und Ursula",
    "religion": "christian",
    "start_date": "1991",
    "website": "https://gemeinden.erzbistum-koeln.de/dekanat-huerth/",
    "wikipedia": "de:Martin-Luther-King-Kirche (Hürth)"
  }
},
{
  "type": "way",
  "id": 232635971,
  "center": {
    "lat": 50.8813545,
    "lon": 6.8842175
  },
  "tags": {
    "addr:city": "Hürth",
    "addr:country": "DE",
    "addr:housenumber": "60",
    "addr:postcode": "50354",
    "addr:street": "Severinusstraße",
    "amenity": "place_of_worship",
    "building": "church",
    "denomination": "catholic",
    "name": "St. Severin Kirche",
    "religion": "christian",
    "wikidata": "Q2801589",
    "wikipedia": "de:St. Severin (Hermülheim)"
  }
},
{
  "type": "way",
  "id": 236587293,
  "center": {
    "lat": 50.9464529,
    "lon": 6.9602905
  },
  "tags": {
    "addr:city": "Köln",
    "addr:country": "DE",
    "addr:housenumber": "39",
    "addr:postcode": "50668",
    "addr:street": "Machabäerstraße",
    "amenity": "place_of_worship",
    "architect": "Matteo Alberti",
    "architect:wikipedia": "https://de.wikipedia.org/wiki/Matteo_Alberti",
    "building": "church",
    "building:architecture": "baroque",
    "building:use": "religious",
    "denomination": "catholic",
    "diocese": "Erzbistum Köln",
    "heritage": "8",
    "heritage:operator": "UntereDenkmalbehörde",
    "heritage:ref": "922",
    "heritage:since": "1982-01-18",
    "name": "Ursulinenkirche St. Corpus Christi",
    "religion": "christian",
    "wikidata": "Q1246781",
    "wikipedia": "de:Ursulinenkirche St. Corpus Christi"
  }
},
{
  "type": "way",
  "id": 241741301,
  "center": {
    "lat": 50.8880802,
    "lon": 7.0659650
  },
  "tags": {
    "addr:city": "Köln",
    "addr:country": "DE",
    "addr:housenumber": "1",
    "addr:postcode": "51145",
    "addr:street": "Bonner Straße",
    "amenity": "place_of_worship",
    "building": "church",
    "building:use": "religious",
    "denomination": "catholic",
    "name": "St. Fronleichnam",
    "religion": "christian",
    "wikidata": "Q62587785",
    "wikipedia": "de:St. Fronleichnam (Köln-Porz)"
  }
},
{
  "type": "way",
  "id": 241922527,
  "center": {
    "lat": 50.8805057,
    "lon": 7.0560882
  },
  "tags": {
    "amenity": "place_of_worship",
    "building": "church",
    "deanery": "Evangelischer Kirchenkreis Köln-Rechtsrheinisch",
    "denomination": "protestant",
    "diocese": "Evangelische Kirche im Rheinland",
    "name": "Lukaskirche",
    "parish": "Evangelische Kirchengemeinde Porz",
    "religion": "christian",
    "service_times": "Su 11:00",
    "website": "https://www.kirche-porz.de/",
    "wheelchair": "no",
    "wikidata": "Q15833015",
    "wikipedia": "de:Lukaskirche (Köln-Porz)"
  }
},
{
  "type": "way",
  "id": 244403345,
  "center": {
    "lat": 50.9692350,
    "lon": 7.0411926
  },
  "tags": {
    "addr:city": "Köln",
    "addr:housenumber": "501",
    "addr:postcode": "51067",
    "addr:street": "Bergisch Gladbacher Straße",
    "alt_name": "Casiopeia Theater",
    "alt_name:1": "Cassiopeia Bühne",
    "amenity": "theatre",
    "building": "yes",
    "building:levels": "1",
    "name": "Cassiopeia Bühne & Cassiopeia Theater",
    "operator": "Cassiopeia Bühen & Cassiopeia Theater",
    "roof:shape": "flat",
    "theatre:genre": "drama",
    "theatre:genre_1": "figure",
    "theatre:genre_2": "puppet",
    "website": "https://www.cassiopeia-buehne.de",
    "wheelchair": "yes",
    "wikipedia": "de:Cassiopeia Theater"
  }
},
{
  "type": "way",
  "id": 248377032,
  "center": {
    "lat": 50.9253632,
    "lon": 6.9000087
  },
  "tags": {
    "addr:city": "Köln",
    "addr:country": "DE",
    "addr:postcode": "50935",
    "addr:street": "Decksteiner Straße",
    "amenity": "place_of_worship",
    "building": "church",
    "name": "St. Thomas-Morus-Kirche",
    "religion": "christian",
    "wheelchair": "limited",
    "wikipedia": "de:St. Thomas Morus (Köln)"
  }
},
{
  "type": "way",
  "id": 248656007,
  "center": {
    "lat": 50.9235206,
    "lon": 6.9597618
  },
  "tags": {
    "addr:city": "Köln",
    "addr:country": "DE",
    "addr:housenumber": "1",
    "addr:postcode": "50678",
    "addr:street": "An der Basilika St. Severin",
    "amenity": "place_of_worship",
    "building": "yes",
    "church:style": "romanesque",
    "denomination": "catholic",
    "name": "St. Severin",
    "religion": "christian",
    "source": "survey",
    "wheelchair": "limited",
    "wikidata": "Q457659",
    "wikipedia": "de:St. Severin (Köln)"
  }
},
{
  "type": "way",
  "id": 249181383,
  "center": {
    "lat": 50.9228121,
    "lon": 6.9630852
  },
  "tags": {
    "addr:city": "Köln",
    "addr:country": "DE",
    "addr:housenumber": "32",
    "addr:postcode": "50678",
    "addr:street": "Severinswall",
    "building": "windmill",
    "heritage": "yes",
    "historic": "windmill",
    "man_made": "windmill",
    "name": "Bottmühle",
    "tourism": "attraction",
    "wikidata": "Q894898",
    "wikimedia_commons": "Category:Bottmühle (Köln)",
    "wikipedia": "de:Bottmühle",
    "windmill:vanes": "no"
  }
},
{
  "type": "way",
  "id": 249181385,
  "center": {
    "lat": 50.9212485,
    "lon": 6.9631483
  },
  "tags": {
    "addr:city": "Köln",
    "addr:country": "DE",
    "addr:housenumber": "40",
    "addr:postcode": "50678",
    "addr:street": "Ubierring",
    "amenity": "college",
    "name": "Köln International School of Design (KISD)",
    "operator": "Technische Hochschule Köln",
    "operator:en": "Cologne University of Applied Sciences",
    "toilets:wheelchair": "yes",
    "website": "https://kisd.de/",
    "wheelchair": "limited",
    "wheelchair:description": "Weitere Informationen bzgl. der Barrierefreiheit finden Sie unter folgenden Link: http://www.kombabb-internetportal-nrw.de/plugin.php?menuid=6&template=mv/templates/mv_show_front.html&mv_id=1&extern_meta=x&mv_content_id=4",
    "wikidata": "Q963452",
    "wikimedia_commons": "Category:Hochschulgebäude Ubierring 40",
    "wikipedia": "en:Köln International School of Design"
  }
},
{
  "type": "way",
  "id": 249416041,
  "center": {
    "lat": 50.9269228,
    "lon": 6.9475231
  },
  "tags": {
    "addr:city": "Köln",
    "addr:country": "DE",
    "addr:housenumber": "4",
    "addr:postcode": "50676",
    "addr:street": "Pantaleonswall",
    "amenity": "place_of_worship",
    "building": "church",
    "contact:email": "koeln@selk.de",
    "contact:fax": "+49 221 93119224",
    "contact:phone": "+49 221 316590",
    "contact:website": "http://www.lutheraner-koeln.de",
    "denomination": "lutheran",
    "name": "St. Johannisgemeinde",
    "religion": "christian",
    "service_times": "Su 10:00",
    "wheelchair": "yes",
    "wikipedia": "de:Selbständige Evangelisch-Lutherische Kirche"
  }
},
{
  "type": "way",
  "id": 250567228,
  "center": {
    "lat": 50.9452395,
    "lon": 6.8296514
  },
  "tags": {
    "addr:city": "Köln",
    "addr:country": "DE",
    "addr:housenumber": "2",
    "addr:postcode": "50859",
    "addr:street": "Kirchgasse",
    "alt_name": "Sankt Severinus",
    "amenity": "place_of_worship",
    "building": "church",
    "building:use": "religious",
    "denomination": "catholic",
    "name": "St. Severin",
    "religion": "christian",
    "wikidata": "Q1299447",
    "wikipedia": "de:St. Severin (Lövenich)"
  }
},
{
  "type": "way",
  "id": 251243259,
  "center": {
    "lat": 50.9568642,
    "lon": 6.9632987
  },
  "tags": {
    "addr:city": "Köln",
    "addr:country": "DE",
    "addr:housenumber": "1",
    "addr:postcode": "50668",
    "addr:street": "Lentstraße",
    "amenity": "place_of_worship",
    "building": "church",
    "building:use": "religious",
    "deanery": "Evangelischer Kirchenkreis Köln-Mitte",
    "denomination": "protestant",
    "diocese": "Evangelische Kirche im Rheinland",
    "name": "Thomaskirche",
    "parish": "Evangelische Gemeinde Köln",
    "religion": "christian",
    "roof:shape": "pyramidal",
    "service_times": "Su 10:00",
    "website": "https://www.thomaskirche-koeln.de/",
    "wheelchair": "yes",
    "wikidata": "Q2428535",
    "wikipedia": "de:Thomaskirche (Köln)"
  }
},
{
  "type": "way",
  "id": 256226536,
  "center": {
    "lat": 50.9364051,
    "lon": 6.9658880
  },
  "tags": {
    "bridge:structure": "beam",
    "bridge:structure:beam": "steel_box_girder",
    "layer": "1",
    "man_made": "bridge",
    "name": "Deutzer Brücke",
    "name:ksh": "Düxer Bröck",
    "start_date": "1948",
    "wikidata": "Q316976",
    "wikipedia": "de:Deutzer Brücke"
  }
},
{
  "type": "way",
  "id": 258447518,
  "center": {
    "lat": 50.9672774,
    "lon": 7.0501013
  },
  "tags": {
    "layer": "-1",
    "name": "Strunde",
    "source": "survey",
    "tunnel": "yes",
    "waterway": "stream",
    "wikipedia": "de:Strunde"
  }
},
{
  "type": "way",
  "id": 258447519,
  "center": {
    "lat": 50.9631236,
    "lon": 7.0426157
  },
  "tags": {
    "name": "Strunde",
    "source": "survey",
    "waterway": "stream",
    "wikipedia": "de:Strunde"
  }
},
{
  "type": "way",
  "id": 258515965,
  "center": {
    "lat": 50.9220648,
    "lon": 6.9225658
  },
  "tags": {
    "addr:city": "Köln",
    "addr:country": "DE",
    "addr:housenumber": "273b",
    "addr:postcode": "50937",
    "addr:street": "Zülpicher Straße",
    "amenity": "place_of_worship",
    "building": "church",
    "building:use": "religious",
    "denomination": "roman_catholic",
    "name": "Sankt Karl Borromäus",
    "religion": "christian",
    "wikidata": "Q62587822",
    "wikipedia": "de:St. Karl Borromäus (Köln)"
  }
},
{
  "type": "way",
  "id": 258875335,
  "center": {
    "lat": 50.9436201,
    "lon": 6.9385591
  },
  "tags": {
    "addr:city": "Köln",
    "addr:country": "DE",
    "addr:housenumber": "1",
    "addr:postcode": "50672",
    "addr:street": "Dorothee-Sölle-Platz",
    "amenity": "place_of_worship",
    "building": "church",
    "building:use": "religious",
    "deanery": "Evangelischer Kirchenkreis Köln-Mitte",
    "denomination": "protestant",
    "diocese": "Evangelische Kirche im Rheinland",
    "name": "Christuskirche",
    "parish": "Evangelische Gemeinde Köln",
    "religion": "christian",
    "service_times": "Su[1] 18:00; Su[2-5] 11:30",
    "website": "https://www.christuskirche-mitten-im-leben.de/",
    "wikidata": "Q945757",
    "wikipedia": "de:Christuskirche (Köln)"
  }
},
{
  "type": "way",
  "id": 262820660,
  "center": {
    "lat": 50.9064853,
    "lon": 6.9758903
  },
  "tags": {
    "amenity": "university",
    "name": "Höhere Fachschule fürAugenoptik",
    "wikidata": "Q19964978",
    "wikipedia": "de:Höhere Fachschule für Augenoptik Köln"
  }
},
{
  "type": "way",
  "id": 262834596,
  "center": {
    "lat": 50.9019153,
    "lon": 6.9704308
  },
  "tags": {
    "addr:city": "Köln",
    "addr:country": "DE",
    "addr:housenumber": "25",
    "addr:postcode": "50968",
    "addr:street": "Goethestraße",
    "amenity": "place_of_worship",
    "building": "church",
    "building:use": "religious",
    "deanery": "Evangelischer Kirchenkreis Köln-Süd",
    "denomination": "protestant",
    "diocese": "Evangelische Kirche im Rheinland",
    "name": "Reformationskirche",
    "parish": "Evangelische Kirchengemeinde Bayenthal",
    "religion": "christian",
    "service_times": "Su 10:30",
    "start_date": "1905",
    "website": "https://www.kirche-bayenthal.de/",
    "wheelchair": "limited",
    "wikidata": "Q62588388",
    "wikipedia": "de:Reformationskirche (Köln-Bayenthal)"
  }
},
{
  "type": "way",
  "id": 262841131,
  "center": {
    "lat": 50.9064748,
    "lon": 6.9770165
  },
  "tags": {
    "building": "yes",
    "height": "27",
    "heritage": "yes",
    "historic": "yes",
    "image": "http://upload.wikimedia.org/wikipedia/commons/f/fa/Bismarckturm_%28K%C3%B6ln%29.jpg?uselang=de",
    "man_made": "tower",
    "name": "Bismarckturm Köln",
    "network": "Bismarckturm",
    "start_date": "1903-06-21",
    "tower:type": "monument",
    "wikidata": "Q866546",
    "wikipedia": "de:Bismarckturm (Köln)"
  }
},
{
  "type": "way",
  "id": 266231978,
  "center": {
    "lat": 50.8871554,
    "lon": 6.9970752
  },
  "tags": {
    "addr:city": "Köln",
    "addr:country": "DE",
    "addr:housenumber": "15",
    "addr:postcode": "50996",
    "addr:street": "Siegfriedstraße",
    "amenity": "place_of_worship",
    "building": "church",
    "building:use": "religious",
    "deanery": "Evangelischer Kirchenkreis Köln-Süd",
    "denomination": "protestant",
    "diocese": "Evangelische Kirche im Rheinland",
    "name": "Erlöserkirche",
    "parish": "Evangelische Kirchengemeinde Rodenkirchen",
    "religion": "christian",
    "service_times": "Su 10:00",
    "start_date": "1967",
    "website": "http://www.erloeserkirche-rodenkirchen.de/",
    "wheelchair": "yes",
    "wikidata": "Q1355777",
    "wikipedia": "de:Erlöserkirche (Rodenkirchen)"
  }
},
{
  "type": "way",
  "id": 268130024,
  "center": {
    "lat": 50.9414395,
    "lon": 6.9657044
  },
  "tags": {
    "bridge:name": "Hohenzollernbrücke",
    "bridge:name:ksh": "Hohenzollernbröck",
    "bridge:structure": "arch",
    "layer": "1",
    "man_made": "bridge",
    "name": "Hohenzollernbrücke",
    "name:ksh": "Hohenzollernbröck",
    "restart_date": "1948",
    "start_date": "1911",
    "surface": "metal",
    "wikidata": "Q696762",
    "wikipedia": "de:Hohenzollernbrücke (Köln)"
  }
},
{
  "type": "way",
  "id": 282443595,
  "center": {
    "lat": 50.9366005,
    "lon": 6.9449933
  },
  "tags": {
    "addr:city": "Köln",
    "addr:country": "DE",
    "addr:housenumber": "30",
    "addr:postcode": "50667",
    "addr:street": "Neumarkt",
    "amenity": "place_of_worship",
    "building": "church",
    "building:use": "religious",
    "church:style": "romanesque",
    "denomination": "catholic",
    "heritage": "8",
    "heritage:operator": "UntereDenkmalbehörde",
    "heritage:ref": "1137",
    "historic": "heritage",
    "image": "http://commons.wikimedia.org/wiki/File:St._Aposteln_K%C3%B6ln_-_Ostseite_(4539).jpg",
    "name": "St. Aposteln",
    "name:en": "Basilica of the Holy Apostles",
    "name:fr": "Basilique des Saints-Apôtres de Cologne",
    "name:ru": "Апостольская церковь",
    "religion": "christian",
    "website": "http://www.st-aposteln.de/",
    "wikidata": "Q526047",
    "wikipedia": "de:St. Aposteln"
  }
},
{
  "type": "way",
  "id": 282747729,
  "center": {
    "lat": 50.9446561,
    "lon": 6.9457192
  },
  "tags": {
    "addr:city": "Köln",
    "addr:country": "DE",
    "addr:housenumber": "21",
    "addr:postcode": "50670",
    "addr:street": "Probsteigasse",
    "amenity": "theatre",
    "building": "yes",
    "building:levels": "3",
    "building:use": "residential;industrial",
    "name": "Erstes Kölner Wohnzimmertheater",
    "phone": "+49 221 / 130 07 07",
    "roof:orientation": "across",
    "roof:shape": "gabled",
    "website": "http://www.wohnzimmertheater.de/",
    "wikidata": "Q15445339",
    "wikipedia": "de:Martin Zingsheim"
  }
},
{
  "type": "way",
  "id": 283913232,
  "center": {
    "lat": 50.9830946,
    "lon": 6.9455796
  },
  "tags": {
    "addr:city": "Köln",
    "addr:country": "DE",
    "addr:housenumber": "2",
    "addr:postcode": "50737",
    "addr:street": "Floriansgasse",
    "amenity": "place_of_worship",
    "building": "church",
    "building:levels": "1",
    "building:use": "religious",
    "denomination": "catholic",
    "name": "Heilig Kreuz",
    "religion": "christian",
    "wheelchair": "yes",
    "wikidata": "Q62587797",
    "wikipedia": "de:Heilig Kreuz (Köln)"
  }
},
{
  "type": "way",
  "id": 285715949,
  "center": {
    "lat": 50.9535810,
    "lon": 6.9770460
  },
  "tags": {
    "aerialway": "gondola",
    "aerialway:heating": "no",
    "aerialway:occupancy": "2",
    "alt_name": "Kölner Seilbahn",
    "layer": "3",
    "name": "Rheinseilbahn",
    "name:en": "Cologne Cable Car",
    "phone": "+49 221 5474183",
    "tourism": "attraction",
    "website": "http://www.koelner-seilbahn.de",
    "website:en": "http://www.koelner-seilbahn.de/english/index.html",
    "wikipedia": "de:Kölner Seilbahn"
  }
},
{
  "type": "way",
  "id": 289516077,
  "center": {
    "lat": 50.9712475,
    "lon": 7.0825394
  },
  "tags": {
    "name": "Strunde",
    "source": "survey",
    "waterway": "stream",
    "wikipedia": "de:Strunde"
  }
},
{
  "type": "way",
  "id": 289516080,
  "center": {
    "lat": 50.9713755,
    "lon": 7.0823303
  },
  "tags": {
    "layer": "-1",
    "name": "Strunde",
    "source": "survey",
    "tunnel": "yes",
    "waterway": "stream",
    "wikipedia": "de:Strunde"
  }
},
{
  "type": "way",
  "id": 289516082,
  "center": {
    "lat": 50.9711491,
    "lon": 7.0827242
  },
  "tags": {
    "layer": "-1",
    "name": "Strunde",
    "source": "survey",
    "tunnel": "yes",
    "waterway": "stream",
    "wikipedia": "de:Strunde"
  }
},
{
  "type": "way",
  "id": 289516085,
  "center": {
    "lat": 50.9716902,
    "lon": 7.0766202
  },
  "tags": {
    "name": "Strunde",
    "source": "survey",
    "waterway": "stream",
    "wikipedia": "de:Strunde"
  }
},
{
  "type": "way",
  "id": 291664319,
  "center": {
    "lat": 50.9639008,
    "lon": 7.0012515
  },
  "tags": {
    "addr:city": "Köln",
    "addr:country": "DE",
    "addr:housenumber": "70",
    "addr:postcode": "51063",
    "addr:street": "Wallstraße",
    "amenity": "place_of_worship",
    "building": "church",
    "deanery": "Evangelischer Kirchenkreis Köln-Rechtsrheinisch",
    "denomination": "protestant",
    "diocese": "Evangelische Kirche im Rheinland",
    "name": "Friedenskirche",
    "parish": "Evangelische Kirchengemeinde Mülheim am Rhein",
    "phone": "+49 221 9625020",
    "religion": "christian",
    "service_times": "Su 11:00",
    "start_date": "1786",
    "website": "http://www.kirche-koeln-muelheim.de/",
    "wikidata": "Q1345992",
    "wikipedia": "de:Friedenskirche (Köln-Mülheim)"
  }
},
{
  "type": "way",
  "id": 303282716,
  "center": {
    "lat": 50.9176475,
    "lon": 6.8578374
  },
  "tags": {
    "name": "Südlicher Randkanal",
    "waterway": "drain",
    "wikipedia": "de:Kölner Randkanal"
  }
},
{
  "type": "way",
  "id": 303291147,
  "center": {
    "lat": 51.0264590,
    "lon": 6.9593628
  },
  "tags": {
    "addr:city": "Köln",
    "addr:country": "DE",
    "addr:housenumber": "11",
    "addr:postcode": "50769",
    "addr:street": "Brictiusstraße",
    "amenity": "place_of_worship",
    "building": "church",
    "building:use": "religious",
    "denomination": "catholic",
    "name": "St. Brictius",
    "religion": "christian",
    "wikidata": "Q2317695",
    "wikipedia": "de:St. Brictius (Merkenich)"
  }
},
{
  "type": "way",
  "id": 310811030,
  "center": {
    "lat": 51.0000105,
    "lon": 6.9366743
  },
  "tags": {
    "building": "bunker",
    "historic": "heritage",
    "name": "Winkelturm (Bunker)",
    "ruins": "no",
    "start_date": "1940",
    "tourism": "attraction",
    "website": "https://welt.unter.koeln/4-Winkelturm.html",
    "wikidata": "Q1818787",
    "wikipedia": "de:Leo Winkel"
  }
},
{
  "type": "way",
  "id": 316013323,
  "center": {
    "lat": 50.9467494,
    "lon": 6.9626688
  },
  "tags": {
    "addr:city": "Köln",
    "addr:country": "DE",
    "addr:housenumber": "6",
    "addr:postcode": "50668",
    "addr:street": "Kunibertskloster",
    "amenity": "place_of_worship",
    "building": "church",
    "building:use": "religious",
    "denomination": "catholic",
    "name": "St. Kunibert",
    "religion": "christian",
    "wikidata": "Q457665",
    "wikipedia": "de:St. Kunibert (Köln)"
  }
},
{
  "type": "way",
  "id": 323315361,
  "center": {
    "lat": 50.9655607,
    "lon": 6.9744573
  },
  "tags": {
    "addr:city": "Köln",
    "addr:country": "DE",
    "addr:housenumber": "30",
    "addr:postcode": "50735",
    "addr:street": "Riehler Gürtel",
    "amenity": "place_of_worship",
    "architect": "Dominikus Böhm",
    "building": "church",
    "denomination": "roman_catholic",
    "name": "Sankt Engelbert",
    "religion": "christian",
    "website": "https://www.sankt-engelbert-und-sankt-bonifatius.de/",
    "wheelchair": "no",
    "wikidata": "Q2318128",
    "wikipedia": "de:St. Engelbert (Köln)",
    "year_of_construction": "1932"
  }
},
{
  "type": "way",
  "id": 328877085,
  "center": {
    "lat": 50.9384210,
    "lon": 6.9541175
  },
  "tags": {
    "addr:city": "Köln",
    "addr:street": "Kolumbastraße",
    "alt_name": "Sankt Kolumba",
    "amenity": "place_of_worship",
    "building": "church",
    "denomination": "catholic",
    "name": "Madonna in den Trümmern",
    "opening_hours": "Mo-Su 09:30-17:30",
    "parish": "Sankt Aposteln Köln",
    "phone": "+49 221 598136-20",
    "religion": "christian",
    "service_times": "no",
    "wheelchair": "limited",
    "wheelchair:description": "Keine Stufe am Eingang zur Kapelle",
    "wikidata": "Q2319949",
    "wikipedia": "de:St. Kolumba"
  }
},
{
  "type": "way",
  "id": 332039677,
  "center": {
    "lat": 50.9276962,
    "lon": 7.0446465
  },
  "tags": {
    "amenity": "place_of_worship",
    "building": "church",
    "deanery": "Evangelischer Kirchenkreis Köln-Rechtsrheinisch",
    "denomination": "protestant",
    "diocese": "Evangelische Kirche im Rheinland",
    "name": "Auferstehungskirche Ostheim",
    "parish": "Evangelische Kirchengemeinde Köln Rath-Ostheim",
    "religion": "christian",
    "service_times": "Su 9:30",
    "website": "https://www.kirchengemeinde-rath-ostheim.de/",
    "wikidata": "Q62588265",
    "wikipedia": "de:Auferstehungskirche (Köln-Ostheim)"
  }
},
{
  "type": "way",
  "id": 332472755,
  "center": {
    "lat": 50.9362752,
    "lon": 6.9531374
  },
  "tags": {
    "addr:city": "Köln",
    "addr:country": "DE",
    "addr:housenumber": "57",
    "addr:postcode": "50667",
    "addr:street": "Schildergasse",
    "amenity": "place_of_worship",
    "building": "church",
    "deanery": "Evangelischer Kirchenkreis Köln-Mitte",
    "denomination": "protestant",
    "diocese": "Evangelische Kirche im Rheinland",
    "name": "AntoniterCityKirche",
    "opening_hours": "Mo-Fr 11:00-19:00; Sa 11:00-17:00; Su, PH 11:00-17:30",
    "parish": "Evangelische Gemeinde Köln",
    "religion": "christian",
    "service_times": "Su 10:00, 18:00",
    "source": "survey",
    "website": "https://www.antonitercitykirche.de/",
    "wheelchair": "yes",
    "wikidata": "Q606488",
    "wikipedia": "de:Antoniterkirche (Köln)"
  }
},
{
  "type": "way",
  "id": 333352331,
  "center": {
    "lat": 50.9276474,
    "lon": 7.0619649
  },
  "tags": {
    "addr:city": "Köln",
    "addr:country": "DE",
    "addr:housenumber": "269",
    "addr:postcode": "51107",
    "addr:street": "Rösrather Straße",
    "amenity": "place_of_worship",
    "building": "church",
    "building:use": "religious",
    "denomination": "jehovahs_witness",
    "name": "Königreichssaal Jehovas Zeugen",
    "name:en": "Kingdom Hall Of Jehovahs Witnesses",
    "name:fr": "Salle du royaume des Témoins de Jéhovah",
    "religion": "christian",
    "short_name": "JW.ORG"
  }
},
{
  "type": "way",
  "id": 334084497,
  "center": {
    "lat": 50.9367395,
    "lon": 6.9584317
  },
  "tags": {
    "amenity": "theatre",
    "building": "yes",
    "building:use": "cultural",
    "name": "Gürzenich",
    "toilets:wheelchair": "yes",
    "website": "http://www.koelnkongress.de/wDeutsch/locations/guerzenich/index.php",
    "wheelchair": "limited",
    "wikidata": "Q153450",
    "wikipedia": "de:Gürzenich"
  }
},
{
  "type": "way",
  "id": 335999590,
  "center": {
    "lat": 50.9862181,
    "lon": 6.9927969
  },
  "tags": {
    "addr:city": "Köln",
    "addr:country": "DE",
    "addr:housenumber": "10",
    "addr:postcode": "51061",
    "addr:street": "Bonhoefferstraße",
    "amenity": "place_of_worship",
    "building": "church",
    "building:levels": "5",
    "building:use": "religious",
    "deanery": "Evangelischer Kirchenkreis Köln-Rechtsrheinisch",
    "denomination": "protestant",
    "diocese": "Evangelische Kirche im Rheinland",
    "name": "Immanuel-Kirche Stammheim",
    "parish": "Evangelische Brückenschlag-Gemeinde Köln-Flittard/Stammheim",
    "religion": "christian",
    "service_times": "Su 11:30",
    "start_date": "2013",
    "website": "https://www.brueckenschlag-gemeinde.de/",
    "wheelchair": "yes",
    "wikidata": "Q14906969",
    "wikipedia": "de:Immanuel-Kirche (Köln-Flittard/Stammheim)"
  }
},
{
  "type": "way",
  "id": 346962894,
  "center": {
    "lat": 50.9570519,
    "lon": 6.9257342
  },
  "tags": {
    "amenity": "place_of_worship",
    "building": "yes",
    "name": "Synagoge im Jüdischen Wohlfahrtszentrum",
    "operator": "Synagogen-Gemeinde Köln",
    "religion": "jewish",
    "source": "knowledge",
    "website": "https://www.sgk.de/index.php/ottostrasse.html",
    "wikipedia": "de:Jüdisches Wohlfahrtszentrum"
  }
},
{
  "type": "way",
  "id": 348751948,
  "center": {
    "lat": 50.9378825,
    "lon": 7.0817758
  },
  "tags": {
    "name": "Flehbach",
    "waterway": "stream",
    "wikipedia": "de:Flehbach"
  }
},
{
  "type": "way",
  "id": 353397486,
  "center": {
    "lat": 50.9385994,
    "lon": 6.9600184
  },
  "tags": {
    "amenity": "fountain",
    "heritage": "8",
    "heritage:operator": "UntereDenkmalbehörde",
    "heritage:ref": "7",
    "historic": "heritage",
    "image": "http://commons.wikimedia.org/wiki/File:Jan_van_Werth_-_Alter_Markt_Köln_(6506-08).jpg",
    "name": "Jan von Werth-Brunnen",
    "name:en": "Jan von Werth Fountain",
    "natural": "water",
    "natural_1": "water",
    "sculptor": "Wilhelm Albermann",
    "start_date": "1884",
    "water": "basin",
    "wikidata": "Q21973942"
  }
},
{
  "type": "way",
  "id": 356947646,
  "center": {
    "lat": 50.9674161,
    "lon": 7.0500407
  },
  "tags": {
    "addr:city": "Köln",
    "addr:country": "DE",
    "addr:housenumber": "79",
    "addr:postcode": "51067",
    "addr:street": "Schweinheimer Straße",
    "building": "yes",
    "building:use": "residential",
    "historic": "building",
    "wikipedia": "de:Liste der Baudenkmäler im Kölner Stadtteil Holweide"
  }
},
{
  "type": "way",
  "id": 358539690,
  "center": {
    "lat": 50.9452199,
    "lon": 7.0798900
  },
  "tags": {
    "addr:city": "Köln",
    "addr:country": "DE",
    "addr:housenumber": "942",
    "addr:postcode": "51109",
    "addr:street": "Olpener Straße",
    "amenity": "place_of_worship",
    "building": "church",
    "building:use": "religious",
    "denomination": "roman_catholic",
    "name": "St. Hubertus",
    "religion": "christian",
    "service_times": "Su 08:45-09:45,11:15-12:30",
    "website": "http://www.st-hubertus-koeln-brueck.de/",
    "wheelchair": "yes",
    "wikidata": "Q15526115",
    "wikipedia": "de:St. Hubertus (Köln-Brück)"
  }
},
{
  "type": "way",
  "id": 359361157,
  "center": {
    "lat": 51.0330000,
    "lon": 6.9588972
  },
  "tags": {
    "alt_name": "Leverkusener Brücke",
    "bridge:structure": "cable-stayed",
    "layer": "1",
    "man_made": "bridge",
    "name": "Rheinbrücke Leverkusen",
    "start_date": "1965",
    "wikidata": "Q200494",
    "wikipedia": "de:Rheinbrücke Leverkusen"
  }
},
{
  "type": "way",
  "id": 360935175,
  "center": {
    "lat": 50.9493420,
    "lon": 6.9653980
  },
  "tags": {
    "addr:city": "Köln",
    "addr:country": "DE",
    "addr:housenumber": "69a",
    "addr:postcode": "50668",
    "addr:street": "Konrad-Adenauer-Ufer",
    "barrier": "city_wall",
    "building": "yes",
    "height": "8.5",
    "heritage": "8",
    "heritage:operator": "UntereDenkmalbehörde",
    "heritage:ref": "81",
    "historic": "yes",
    "image": "https://commons.wikimedia.org/wiki/File:Weckschnapp-Befestigungsturm,_Konrad-Adenauer-Ufer_69a-0217.jpg",
    "man_made": "tower",
    "name": "Weckschnapp",
    "source": "photography",
    "tower:type": "defensive",
    "wikidata": "Q2553840",
    "wikipedia": "de:Weckschnapp"
  }
},
{
  "type": "way",
  "id": 362636366,
  "center": {
    "lat": 50.9322554,
    "lon": 6.9564547
  },
  "tags": {
    "amenity": "fountain",
    "heritage": "8",
    "heritage:operator": "UntereDenkmalbehörde",
    "heritage:ref": "164",
    "historic": "heritage",
    "image": "https://commons.wikimedia.org/wiki/File:Hermann-Joseph-Brunnen_Waidmarkt_K%C3%B6ln-4997.jpg",
    "name": "Hermann-Joseph Brunnen",
    "natural": "water",
    "source": "photography",
    "water": "basin",
    "wikidata": "Q21995143",
    "wikipedia": "de:Hermann-Josef-Brunnen"
  }
},
{
  "type": "way",
  "id": 364796835,
  "center": {
    "lat": 50.9622589,
    "lon": 6.9794761
  },
  "tags": {
    "animal": "vultures",
    "area": "yes",
    "attraction": "animal",
    "name": "Geier",
    "name:en": "vultures",
    "tourism": "attraction",
    "zoo": "enclosure"
  }
},
{
  "type": "way",
  "id": 367613760,
  "center": {
    "lat": 50.9501073,
    "lon": 7.0070890
  },
  "tags": {
    "amenity": "place_of_worship",
    "architect": "Wilhelm Riphahn; Caspar Maria Grod",
    "architect:reconstruction": "Dominikus Böhm; Gottfried Böhm",
    "building": "church",
    "building:levels": "5",
    "denomination": "catholic",
    "heritage": "8",
    "heritage:ensemble": "Weiße Stadt Köln",
    "heritage:operator": "Amt für Denkmalschutz und Denkmalpflege Köln",
    "heritage:operator:short": "Denkmalamt Köln",
    "heritage:ref": "1402",
    "heritage:since": "1983-04-12",
    "name": "St. Petrus Canisius",
    "opening_hours": "Th 08:30-09:00; Sa 17:00-18:00",
    "operator": "Katholische Kirchengemeinde St. Clemens und Mauritius",
    "religion": "christian",
    "website": "https://www.clemens-mauritius.de/st-petrus-canisius",
    "wikidata": "Q62588232",
    "wikipedia": "de:St. Petrus Canisius (Köln)",
    "year_of_construction": "1930-1931",
    "year_of_reconstruction": "1948"
  }
},
{
  "type": "way",
  "id": 375981247,
  "center": {
    "lat": 50.9307919,
    "lon": 6.9677818
  },
  "tags": {
    "bridge:structure": "cable-stayed",
    "layer": "1",
    "man_made": "bridge",
    "name": "Severinsbrücke",
    "start": "1959",
    "wikidata": "Q2275296",
    "wikipedia": "de:Severinsbrücke"
  }
},
{
  "type": "way",
  "id": 375987759,
  "center": {
    "lat": 50.8996767,
    "lon": 6.9905323
  },
  "tags": {
    "bridge:structure": "suspension",
    "layer": "1",
    "man_made": "bridge",
    "name": "Rodenkirchener Brücke",
    "name:ksh": "Rudekircher Bröck",
    "note": "Der genaue Zeitraum, wie lang die Brücke \"Adolf-Hitler-Brücke\" hieß, ist nicht bekannt",
    "old_name:-1945": "Adolf-Hitler-Brücke",
    "restart_date": "1954",
    "start_date": "1941",
    "wikidata": "Q317993",
    "wikimedia_commons": "Category:Rodenkirchener Autobahnbrücke",
    "wikipedia": "de:Rheinbrücke Köln-Rodenkirchen"
  }
},
{
  "type": "way",
  "id": 375988772,
  "center": {
    "lat": 50.9173591,
    "lon": 6.9743151
  },
  "tags": {
    "bridge:structure": "truss",
    "layer": "1",
    "man_made": "bridge",
    "name": "Südbrücke",
    "name:ksh": "Südbröck",
    "restart_date": "1950",
    "start_date": "1910",
    "wikidata": "Q884146",
    "wikipedia": "de:Südbrücke (Köln)"
  }
},
{
  "type": "way",
  "id": 377044413,
  "center": {
    "lat": 50.8813796,
    "lon": 6.8754457
  },
  "tags": {
    "amenity": "place_of_worship",
    "building": "church",
    "deanery": "Evangelischer Kirchenkreis Köln-Süd",
    "denomination": "protestant",
    "diocese": "Evangelische Kirche im Rheinland",
    "name": "Martin-Luther-King-Kirche",
    "name:etymology:wikidata": "Q8027",
    "parish": "Evangelische Kirchengemeinde Hürth",
    "religion": "christian",
    "service_times": "Su 11:00",
    "start_date": "1979",
    "toilets:wheelchair": "no",
    "website": "https://www.evangelisch-in-huerth.de/",
    "wheelchair": "limited",
    "wikidata": "Q1643063",
    "wikipedia": "de:Martin-Luther-King-Kirche (Hürth)"
  }
},
{
  "type": "way",
  "id": 377664254,
  "center": {
    "lat": 50.9112380,
    "lon": 6.8619974
  },
  "tags": {
    "name": "Südlicher Randkanal",
    "waterway": "drain",
    "wikipedia": "de:Kölner Randkanal"
  }
},
{
  "type": "way",
  "id": 381045149,
  "center": {
    "lat": 50.9322795,
    "lon": 6.9635662
  },
  "tags": {
    "bridge:structure": "truss",
    "layer": "1",
    "man_made": "bridge",
    "name": "Drehbrücke im Rheinauhafen",
    "wikidata": "Q1256433",
    "wikimedia_commons": "Category:Kölner Drehbrücke",
    "wikipedia": "de:Drehbrücke im Rheinauhafen"
  }
},
{
  "type": "way",
  "id": 426151904,
  "center": {
    "lat": 50.9278186,
    "lon": 6.9732014
  },
  "tags": {
    "bridge:structure": "truss",
    "layer": "1",
    "man_made": "bridge",
    "name": "Deutzer Drehbrücke",
    "name:ksh": "Düxer Drihbröck",
    "wikidata": "Q1206573",
    "wikipedia": "de:Deutzer Drehbrücke"
  }
},
{
  "type": "way",
  "id": 508243330,
  "center": {
    "lat": 50.9515956,
    "lon": 6.9001089
  },
  "tags": {
    "addr:city": "Köln",
    "addr:housenumber": "295",
    "addr:postcode": "50825",
    "addr:street": "Vogelsanger Straße",
    "amenity": "college",
    "internet_access": "wlan",
    "name": "Rheinische Fachhochschule Köln",
    "operator": "Rheinische Stiftung für Bildung",
    "operator:type": "private",
    "website": "https://www.rfh-koeln.de/",
    "wikidata": "Q1245583",
    "wikipedia": "de:Rheinische Fachhochschule Köln"
  }
},
{
  "type": "way",
  "id": 530671643,
  "center": {
    "lat": 50.9412092,
    "lon": 6.9563544
  },
  "tags": {
    "amenity": "fountain",
    "architect": "Ewald Mataré",
    "artist_name": "Ewald Mataré",
    "artwork_type": "sculpture",
    "image": "http://commons.wikimedia.org/wiki/File:Taubenbrunnen_K%C3%B6ln.jpg",
    "name": "Taubenbrunnen",
    "note": "Brunnenplastik",
    "source": "survey",
    "tourism": "artwork",
    "wheelchair": "yes",
    "wikidata": "Q28311787",
    "wikipedia": "de:Taubenbrunnen (Köln)"
  }
},
{
  "type": "way",
  "id": 536944072,
  "center": {
    "lat": 50.9427678,
    "lon": 6.9507849
  },
  "tags": {
    "amenity": "fountain",
    "artist_name": "Heribert Calleen",
    "name": "Zeichen für den Wiederaufbau",
    "name:en": "Signs for Reconstruction",
    "natural": "water",
    "water": "basin",
    "year_of_construction": "1965"
  }
},
{
  "type": "way",
  "id": 550251822,
  "center": {
    "lat": 50.9399878,
    "lon": 6.9573061
  },
  "tags": {
    "amenity": "fountain",
    "artist_name": "Edmund und Heinrich Renard",
    "name": "Heinzelmännchenbrunnen",
    "name:en": "Heinzelmännchen Fountain",
    "natural": "water",
    "tourism": "attraction",
    "water": "basin",
    "wikidata": "Q15089430",
    "wikipedia": "de:Heinzelmännchen#Heinzelm.C3.A4nnchenbrunnen",
    "year_of_construction": "1899"
  }
},
{
  "type": "way",
  "id": 583391135,
  "center": {
    "lat": 50.9642551,
    "lon": 6.9955632
  },
  "tags": {
    "bridge:structure": "suspension",
    "layer": "1",
    "man_made": "bridge",
    "name": "Mülheimer Brücke",
    "name:ksh": "Müllemer Bröck",
    "start_date": "1951",
    "wikidata": "Q316377",
    "wikipedia": "de:Mülheimer Brücke"
  }
},
{
  "type": "way",
  "id": 583391209,
  "center": {
    "lat": 50.9541177,
    "lon": 6.9760954
  },
  "tags": {
    "bridge:structure": "beam",
    "bridge:structure:beam": "box_girder",
    "layer": "1",
    "man_made": "bridge",
    "name": "Zoobrücke",
    "name:ksh": "Zoobröck",
    "start_date": "1966",
    "wikidata": "Q220132",
    "wikipedia": "de:Zoobrücke"
  }
},
{
  "type": "way",
  "id": 583397767,
  "center": {
    "lat": 50.9464373,
    "lon": 6.9718341
  },
  "tags": {
    "amenity": "fountain",
    "barrier": "kerb",
    "name": "Tanzbrunnen",
    "natural": "water",
    "wikidata": "Q2393273",
    "wikipedia": "de:Tanzbrunnen"
  }
},
{
  "type": "way",
  "id": 626016065,
  "center": {
    "lat": 50.9576613,
    "lon": 6.8592431
  },
  "tags": {
    "addr:housenumber": "10",
    "addr:street": "Carl-von-Linné-Weg",
    "amenity": "university",
    "name": "Max-Planck-Institut für Pflanzenzüchtungsforschung",
    "website": "http://www.mpipz.mpg.de/",
    "wikidata": "Q880933",
    "wikipedia": "de:Max-Planck-Institut für Pflanzenzüchtungsforschung"
  }
},
{
  "type": "way",
  "id": 663224943,
  "center": {
    "lat": 50.9413063,
    "lon": 6.9512820
  },
  "tags": {
    "historic": "monument",
    "name": "Romulus und Remus",
    "name:en": "Romulus and Remus",
    "name:es": "Rómulo y Remo",
    "name:fr": "Romulus et Rémus",
    "name:it": "Romolo e Remo"
  }
},
{
  "type": "way",
  "id": 760068024,
  "center": {
    "lat": 50.9620624,
    "lon": 6.9785584
  },
  "tags": {
    "attraction": "animal",
    "barrier": "fence",
    "landuse": "grass",
    "layer": "1",
    "name": "Roter Panda",
    "name:en": "Red panda",
    "operator": "Zoologischer Garten Köln",
    "species": "Ailurus fulgens",
    "species:wikidata": "Q41960",
    "species:wikipedia": "de:Westlicher Kleiner Panda",
    "tourism": "attraction",
    "zoo": "enclosure"
  }
},
{
  "type": "way",
  "id": 907499634,
  "center": {
    "lat": 50.9307172,
    "lon": 6.9477791
  },
  "tags": {
    "description": "ruins of a gate in the medieval city wall of Cologne built around 12th century, also formerly a part of the Roman city wall.",
    "historic": "ruins",
    "historic:civilization": "medieval",
    "name": "Griechenpforte",
    "wikidata": "Q1546293",
    "wikipedia": "de:Griechenpforte"
  }
},
{
  "type": "relation",
  "id": 34370,
  "center": {
    "lat": 50.9804695,
    "lon": 7.0892162
  },
  "tags": {
    "destination": "Rhein",
    "name": "Strunde",
    "ref:fgkz": "273568",
    "type": "waterway",
    "waterway": "river",
    "wikidata": "Q875510",
    "wikipedia": "de:Strunde"
  }
},
{
  "type": "relation",
  "id": 34373,
  "center": {
    "lat": 50.9647721,
    "lon": 7.0237687
  },
  "tags": {
    "destination": "Rhein",
    "name": "Faulbach",
    "type": "waterway",
    "waterway": "stream",
    "wikidata": "Q1398392",
    "wikipedia": "de:Faulbach (Rhein)"
  }
},
{
  "type": "relation",
  "id": 72777,
  "center": {
    "lat": 50.9423037,
    "lon": 7.0955772
  },
  "tags": {
    "destination": "Faulbach",
    "name": "Flehbach",
    "type": "waterway",
    "waterway": "stream",
    "wikidata": "Q826237",
    "wikipedia": "de:Flehbach"
  }
},
{
  "type": "relation",
  "id": 123924,
  "center": {
    "lat": 49.4131962,
    "lon": 6.8602423
  },
  "tags": {
    "TMC:cid_58:tabcd_1:Class": "Area",
    "TMC:cid_58:tabcd_1:LCLversion": "9.00",
    "TMC:cid_58:tabcd_1:LocationCode": "6041",
    "destination": "North Sea",
    "distance": "1233",
    "name": "Rhein",
    "name:am": "ራይን ወንዝ",
    "name:ar": "نهر الراين",
    "name:bn": "রাইন নদী",
    "name:cs": "Rýn",
    "name:de": "Rhein",
    "name:el": "Ρήνος",
    "name:en": "Rhine",
    "name:es": "Rin",
    "name:fr": "Rhin",
    "name:hi": "रैन्",
    "name:hy": "Հռենոս",
    "name:it": "Reno",
    "name:kn": "ರೈನ್",
    "name:ku": "Reyn",
    "name:la": "Rhenus",
    "name:lb": "Rhäin",
    "name:li": "Rien",
    "name:lt": "Reinas",
    "name:nl": "Rijn",
    "name:pfl": "Rhoi",
    "name:pl": "Ren",
    "name:pt": "Reno",
    "name:rm": "Rein",
    "name:ro": "Rin",
    "name:ru": "Рейн",
    "name:sk": "Rýn",
    "name:tr": "Nehri",
    "name:uk": "Рейн",
    "name:vls": "Reyn",
    "name:wa": "Rén",
    "name:xmf": "რაინი",
    "name:zh": "莱茵河",
    "note": "Don't map tributaries! If you need them, get them by looking at the data (connected waterways). see here http://www.h-renrew.de/h/osm/osmchecks/07_watershed/index.html",
    "order:classic": "1",
    "ref:fgkz": "2",
    "ref:gwlnr": "CH0000010000",
    "ref:sandre": "A---0000",
    "short_name:ar": "راين",
    "type": "waterway",
    "waterway": "river",
    "wikidata": "Q584",
    "wikipedia": "de:Rhein"
  }
},
{
  "type": "relation",
  "id": 1626029,
  "center": {
    "lat": 51.0265839,
    "lon": 6.9205213
  },
  "tags": {
    "name": "Fühlinger See",
    "natural": "water",
    "type": "multipolygon",
    "water": "lake",
    "wikidata": "Q1431773",
    "wikipedia": "de:Fühlinger See"
  }
},
{
  "type": "relation",
  "id": 2190893,
  "center": {
    "lat": 50.9749426,
    "lon": 6.7964844
  },
  "tags": {
    "destination": "Rhein",
    "name": "Kölner Randkanal",
    "type": "waterway",
    "waterway": "drain",
    "wikidata": "Q1553893",
    "wikipedia": "de:Kölner Randkanal"
  }
},
{
  "type": "relation",
  "id": 2196087,
  "center": {
    "lat": 50.8853847,
    "lon": 6.8591177
  },
  "tags": {
    "destination": "Kölner Randkanal",
    "name": "Stotzheimer Bach",
    "note": "additional name in upper part: Burbach",
    "type": "waterway",
    "waterway": "stream",
    "wikidata": "Q2352362",
    "wikipedia": "de:Stotzheimer Bach"
  }
},
{
  "type": "relation",
  "id": 2197721,
  "center": {
    "lat": 50.8952125,
    "lon": 6.8973677
  },
  "tags": {
    "name": "Duffesbach",
    "type": "waterway",
    "waterway": "stream",
    "wikidata": "Q1263975",
    "wikipedia": "de:Duffesbach"
  }
},
{
  "type": "relation",
  "id": 2198354,
  "center": {
    "lat": 50.8964632,
    "lon": 6.8424650
  },
  "tags": {
    "name": "Gleueler Bach",
    "type": "waterway",
    "waterway": "stream",
    "wikidata": "Q1531268",
    "wikipedia": "de:Gleueler Bach"
  }
},
{
  "type": "relation",
  "id": 2222934,
  "center": {
    "lat": 50.9571175,
    "lon": 7.1076624
  },
  "tags": {
    "destination": "Faulbach",
    "name": "Frankenforstbach",
    "note": "Other names: Bruchbach - Eggerbach - Frankenforstbach - Brücker Bach",
    "ref:fgkz": "273566",
    "type": "waterway",
    "waterway": "stream",
    "wikidata": "Q1444626",
    "wikipedia": "de:Frankenforstbach"
  }
},
{
  "type": "relation",
  "id": 2724073,
  "center": {
    "lat": 50.7232329,
    "lon": 6.7849954
  },
  "tags": {
    "alt_name": "Römische Eifelwasserleitung;Römerkanal;Römische Wasserleitung nach Köln",
    "description": "Sammlung der Einträge, um sie über den Wikipedia-Artikel zugänglich zu machen.",
    "historic": "aqueduct",
    "historic:civilization": "roman",
    "name": "Eifelwasserleitung",
    "tourism": "attraction",
    "type": "collection",
    "wikidata": "Q751092",
    "wikipedia": "de:Eifelwasserleitung"
  }
},
{
  "type": "relation",
  "id": 3107468,
  "center": {
    "lat": 51.0115960,
    "lon": 6.9814286
  },
  "tags": {
    "access": "permissive",
    "leisure": "garden",
    "name": "Japanischer Garten",
    "tourism": "attraction",
    "type": "multipolygon",
    "wheelchair": "limited",
    "wikidata": "Q1348762",
    "wikipedia": "de:Japanischer Garten (Leverkusen)"
  }
},
{
  "type": "relation",
  "id": 3807785,
  "center": {
    "lat": 50.9222614,
    "lon": 7.0944793
  },
  "tags": {
    "addr:city": "Köln",
    "addr:country": "DE",
    "addr:housenumber": "8",
    "addr:postcode": "51107",
    "addr:street": "Erlöserkirchstraße",
    "amenity": "place_of_worship",
    "building": "church",
    "building:levels": "1",
    "building:use": "religious",
    "denomination": "roman_catholic",
    "name": "Zum göttlichen Erlöser",
    "religion": "christian",
    "type": "multipolygon",
    "wheelchair": "yes",
    "wikidata": "Q11722131",
    "wikipedia": "de:Zum Göttlichen Erlöser (Köln)"
  }
},
{
  "type": "relation",
  "id": 3890403,
  "center": {
    "lat": 50.9334575,
    "lon": 6.9609575
  },
  "tags": {
    "amenity": "university",
    "name": "Kunsthochschule für Medien",
    "short_name": "KHM",
    "type": "multipolygon",
    "website": "https://www.khm.de/",
    "wikidata": "Q827038",
    "wikipedia": "de:Kunsthochschule für Medien Köln"
  }
},
{
  "type": "relation",
  "id": 8727202,
  "center": {
    "lat": 50.9285272,
    "lon": 6.9257902
  },
  "tags": {
    "amenity": "university",
    "loc_name": "Uni Köln",
    "name": "Universität zu Köln",
    "name:en": "University of Cologne",
    "name:es": "Universidad de Colonia",
    "name:la": "Universitatis Coloniensis",
    "name:nl": "Universiteit van Keulen",
    "short_name": "Universität Köln",
    "start_date": "1919",
    "toilets:wheelchair": "yes",
    "type": "multipolygon",
    "website": "http://www.uni-koeln.de/",
    "wheelchair": "limited",
    "wheelchair:description": "Weitere Informationen bzgl. der Barrierefreiheit finden Sie unter folgenden Link: http://www.kombabb-internetportal-nrw.de/plugin.php?menuid=6&template=mv/templates/mv_show_front.html&mv_id=1&extern_meta=x&mv_content_id=2",
    "wikidata": "Q54096",
    "wikipedia": "de:Universität zu Köln"
  }
},
{
  "type": "relation",
  "id": 10986388,
  "center": {
    "lat": 50.9357020,
    "lon": 6.8981585
  },
  "tags": {
    "addr:city": "Köln",
    "addr:country": "DE",
    "addr:housenumber": "31",
    "addr:postcode": "50933",
    "addr:street": "Braunstraße",
    "amenity": "place_of_worship",
    "building": "church",
    "building:use": "religious",
    "denomination": "catholic",
    "email": "stj-und-cha@gmx.de",
    "heritage": "8",
    "heritage:operator": "UntereDenkmalbehörde",
    "heritage:ref": "8410",
    "historic": "heritage",
    "name": "Sankt Joseph",
    "phone": "+49 221 4911-444",
    "religion": "christian",
    "type": "multipolygon",
    "wikidata": "Q62587813",
    "wikipedia": "de:St. Joseph (Köln-Braunsfeld)"
  }
},
{
  "type": "relation",
  "id": 11742940,
  "center": {
    "lat": 51.0132193,
    "lon": 7.0657927
  },
  "tags": {
    "destination": "Dhünn",
    "name": "Mutzbach",
    "ref:fgkz": "273688",
    "type": "waterway",
    "waterway": "stream",
    "wikidata": "Q870159",
    "wikipedia": "de:Mutzbach"
  }
}

  ]
}
